station,valid,lon,lat,tmpf, dwpf, relh, drct, sknt, p01i, alti, mslp, vsby, gust, skyc1, skyc2, skyc3, skyc4, skyl1, skyl2, skyl3, skyl4, presentwx, metar
MDW,2000-12-31 23:53,-87.7524,41.7860,15.00,11.00,83.84,320.00,3.00,M,29.70,M,M,0.00,M,M,M,M,M,M,M,M,M,M
MDW,2001-01-01 00:53,-87.7524,41.7860,15.00,11.00,83.84,310.00,4.00,M,29.71,M,M,0.00,M,M,M,M,M,M,M,M,M,M
MDW,2001-01-01 01:53,-87.7524,41.7860,14.00,11.00,87.59,280.00,3.00,M,29.72,M,M,0.00,M,M,M,M,M,M,M,M,M,M
MDW,2001-01-01 02:53,-87.7524,41.7860,18.00,12.00,76.97,320.00,4.00,M,29.73,M,M,0.00,M,M,M,M,M,M,M,M,M,M
MDW,2001-01-01 03:53,-87.7524,41.7860,21.00,14.00,73.94,320.00,6.00,M,29.74,M,M,0.00,M,M,M,M,M,M,M,M,M,M
MDW,2001-01-01 04:53,-87.7524,41.7860,23.00,14.00,67.96,320.00,7.00,M,29.74,M,M,0.00,M,M,M,M,M,M,M,M,M,M
MDW,2001-01-01 05:53,-87.7524,41.7860,25.00,17.00,71.22,330.00,7.00,M,29.73,M,M,0.00,M,M,M,M,M,M,M,M,M,M
MDW,2001-01-01 06:53,-87.7524,41.7860,26.00,15.00,62.64,330.00,11.00,M,29.72,M,M,0.00,M,M,M,M,M,M,M,M,M,M
MDW,2001-01-01 07:53,-87.7524,41.7860,25.00,15.00,65.30,330.00,12.00,M,29.72,M,M,0.00,M,M,M,M,M,M,M,M,M,M
MDW,2001-01-01 08:53,-87.7524,41.7860,25.00,14.00,62.50,330.00,11.00,M,29.73,M,M,0.00,M,M,M,M,M,M,M,M,M,M
MDW,2001-01-01 09:53,-87.7524,41.7860,24.00,12.00,59.67,320.00,8.00,M,29.74,M,M,0.00,M,M,M,M,M,M,M,M,M,M
MDW,2001-01-01 10:53,-87.7524,41.7860,22.00,10.00,59.38,320.00,8.00,M,29.75,M,M,0.00,M,M,M,M,M,M,M,M,M,M
MDW,2001-01-01 11:53,-87.7524,41.7860,20.00,13.00,73.84,310.00,7.00,M,29.78,M,M,0.00,M,M,M,M,M,M,M,M,M,M
MDW,2001-01-01 12:53,-87.7524,41.7860,19.00,11.00,70.53,310.00,8.00,M,29.79,M,M,0.00,M,M,M,M,M,M,M,M,M,M
MDW,2001-01-01 13:53,-87.7524,41.7860,17.00,10.00,73.52,300.00,8.00,M,29.81,M,M,0.00,M,M,M,M,M,M,M,M,M,M
MDW,2001-01-01 14:53,-87.7524,41.7860,16.00,11.00,80.27,310.00,6.00,M,29.82,M,M,0.00,M,M,M,M,M,M,M,M,M,M
MDW,2001-01-01 15:53,-87.7524,41.7860,15.00,9.00,76.68,310.00,6.00,M,29.83,M,M,0.00,M,M,M,M,M,M,M,M,M,M
MDW,2001-01-01 16:53,-87.7524,41.7860,14.00,8.00,76.58,310.00,7.00,M,29.84,M,M,0.00,M,M,M,M,M,M,M,M,M,M
MDW,2001-01-01 17:53,-87.7524,41.7860,13.00,9.00,83.70,300.00,7.00,M,29.84,M,M,0.00,M,M,M,M,M,M,M,M,M,M
MDW,2001-01-01 18:53,-87.7524,41.7860,13.00,8.00,80.02,300.00,6.00,M,29.85,M,M,0.00,M,M,M,M,M,M,M,M,M,M
MDW,2001-01-01 19:53,-87.7524,41.7860,12.00,9.00,87.48,310.00,7.00,M,29.87,M,M,0.00,M,M,M,M,M,M,M,M,M,M
MDW,2001-01-01 20:53,-87.7524,41.7860,12.00,8.00,83.63,300.00,6.00,M,29.89,M,M,0.00,M,M,M,M,M,M,M,M,M,M
MDW,2001-01-01 21:53,-87.7524,41.7860,12.00,8.00,83.63,290.00,5.00,M,29.89,M,M,0.00,M,M,M,M,M,M,M,M,M,M
MDW,2001-01-01 22:53,-87.7524,41.7860,11.00,8.00,87.42,310.00,7.00,M,29.90,M,M,0.00,M,M,M,M,M,M,M,M,M,M
MDW,2001-01-01 23:53,-87.7524,41.7860,10.00,7.00,87.37,300.00,4.00,M,29.92,M,M,0.00,M,M,M,M,M,M,M,M,M,M
MDW,2001-01-02 00:53,-87.7524,41.7860,10.00,7.00,87.37,290.00,5.00,M,29.93,M,M,0.00,M,M,M,M,M,M,M,M,M,M
MDW,2001-01-02 01:53,-87.7524,41.7860,9.00,6.00,87.31,250.00,3.00,M,29.94,M,M,0.00,M,M,M,M,M,M,M,M,M,M
MDW,2001-01-02 02:53,-87.7524,41.7860,11.00,7.00,83.56,230.00,5.00,M,29.96,M,M,0.00,M,M,M,M,M,M,M,M,M,M
MDW,2001-01-02 03:53,-87.7524,41.7860,13.00,8.00,80.02,250.00,5.00,M,29.96,M,M,0.00,M,M,M,M,M,M,M,M,M,M
MDW,2001-01-02 04:53,-87.7524,41.7860,18.00,11.00,73.63,240.00,7.00,M,29.95,M,M,0.00,M,M,M,M,M,M,M,M,M,M
MDW,2001-01-02 05:53,-87.7524,41.7860,20.00,11.00,67.58,250.00,12.00,M,29.93,M,M,0.00,M,M,M,M,M,M,M,M,M,M
MDW,2001-01-02 06:53,-87.7524,41.7860,19.00,11.00,70.53,250.00,11.00,M,29.92,M,M,0.00,M,M,M,M,M,M,M,M,M,M
MDW,2001-01-02 07:53,-87.7524,41.7860,18.00,11.00,73.63,240.00,10.00,M,29.89,M,M,0.00,M,M,M,M,M,M,M,M,M,M
MDW,2001-01-02 08:53,-87.7524,41.7860,17.00,9.00,70.30,240.00,9.00,M,29.87,M,M,0.00,M,M,M,M,M,M,M,M,M,M
MDW,2001-01-02 09:53,-87.7524,41.7860,15.00,8.00,73.30,230.00,10.00,M,29.86,M,M,0.00,M,M,M,M,M,M,M,M,M,M
MDW,2001-01-02 10:53,-87.7524,41.7860,12.00,6.00,76.38,250.00,11.00,M,29.86,M,M,0.00,M,M,M,M,M,M,M,M,M,M
MDW,2001-01-02 11:53,-87.7524,41.7860,10.00,5.00,79.76,240.00,10.00,M,29.85,M,M,0.00,M,M,M,M,M,M,M,M,M,M
MDW,2001-01-02 12:53,-87.7524,41.7860,9.00,5.00,83.41,230.00,6.00,M,29.85,M,M,0.00,M,M,M,M,M,M,M,M,M,M
MDW,2001-01-02 13:53,-87.7524,41.7860,8.00,5.00,87.25,220.00,7.00,M,29.82,M,M,0.00,M,M,M,M,M,M,M,M,M,M
MDW,2001-01-02 14:53,-87.7524,41.7860,8.00,4.00,83.34,220.00,7.00,M,29.80,M,M,0.00,M,M,M,M,M,M,M,M,M,M
MDW,2001-01-02 15:53,-87.7524,41.7860,7.00,4.00,87.20,210.00,9.00,M,29.77,M,M,0.00,M,M,M,M,M,M,M,M,M,M
MDW,2001-01-02 16:53,-87.7524,41.7860,7.00,3.00,83.27,210.00,9.00,M,29.74,M,M,0.00,M,M,M,M,M,M,M,M,M,M
MDW,2001-01-02 17:53,-87.7524,41.7860,7.00,2.00,79.50,210.00,11.00,M,29.70,M,M,0.00,M,M,M,M,M,M,M,M,M,M
MDW,2001-01-02 18:53,-87.7524,41.7860,9.00,3.00,76.08,230.00,10.00,M,29.66,M,M,0.00,M,M,M,M,M,M,M,M,M,M
MDW,2001-01-02 19:19,-87.7524,41.7860,M,M,M,220.00,11.00,M,M,M,M,16.00,M,M,M,M,M,M,M,M,M,M
MDW,2001-01-02 19:53,-87.7524,41.7860,12.00,6.00,76.38,220.00,12.00,M,29.63,M,M,17.00,M,M,M,M,M,M,M,M,M,M
MDW,2001-01-02 20:53,-87.7524,41.7860,10.00,5.00,79.76,210.00,12.00,M,29.58,M,M,0.00,M,M,M,M,M,M,M,M,M,M
MDW,2001-01-02 21:31,-87.7524,41.7860,M,M,M,220.00,10.00,M,M,M,M,0.00,M,M,M,M,M,M,M,M,M,M
MDW,2001-01-02 21:53,-87.7524,41.7860,12.00,8.00,83.63,230.00,13.00,M,29.56,M,M,0.00,M,M,M,M,M,M,M,M,M,M
MDW,2001-01-02 22:53,-87.7524,41.7860,14.00,11.00,87.59,220.00,11.00,M,29.53,M,M,17.00,M,M,M,M,M,M,M,M,M,M
MDW,2001-01-02 22:54,-87.7524,41.7860,M,M,M,220.00,12.00,M,M,M,M,17.00,M,M,M,M,M,M,M,M,M,M
MDW,2001-01-02 23:53,-87.7524,41.7860,15.00,12.00,87.65,230.00,11.00,M,29.52,M,M,19.00,M,M,M,M,M,M,M,M,M,M
MDW,2001-01-03 00:21,-87.7524,41.7860,M,M,M,230.00,13.00,M,M,M,M,20.00,M,M,M,M,M,M,M,M,M,M
MDW,2001-01-03 00:26,-87.7524,41.7860,M,M,M,230.00,13.00,M,M,M,M,20.00,M,M,M,M,M,M,M,M,M,M
MDW,2001-01-03 00:53,-87.7524,41.7860,16.00,14.00,91.64,240.00,12.00,M,29.50,M,M,0.00,M,M,M,M,M,M,M,M,M,M
MDW,2001-01-03 01:43,-87.7524,41.7860,M,M,M,230.00,12.00,M,M,M,M,17.00,M,M,M,M,M,M,M,M,M,M
MDW,2001-01-03 01:53,-87.7524,41.7860,17.00,15.00,91.68,230.00,12.00,M,29.48,M,M,0.00,M,M,M,M,M,M,M,M,M,M
MDW,2001-01-03 02:53,-87.7524,41.7860,19.00,16.00,87.87,230.00,13.00,M,29.46,M,M,18.00,M,M,M,M,M,M,M,M,M,M
MDW,2001-01-03 03:45,-87.7524,41.7860,M,M,M,240.00,10.00,M,M,M,M,0.00,M,M,M,M,M,M,M,M,M,M
MDW,2001-01-03 03:53,-87.7524,41.7860,20.00,17.00,87.92,240.00,11.00,M,29.46,M,M,0.00,M,M,M,M,M,M,M,M,M,M
MDW,2001-01-03 04:53,-87.7524,41.7860,21.00,18.00,87.97,250.00,13.00,M,29.46,M,M,0.00,M,M,M,M,M,M,M,M,M,M
MDW,2001-01-03 05:53,-87.7524,41.7860,22.00,19.00,88.02,250.00,13.00,M,29.43,M,M,0.00,M,M,M,M,M,M,M,M,M,M
MDW,2001-01-03 06:06,-87.7524,41.7860,M,M,M,250.00,13.00,M,M,M,M,0.00,M,M,M,M,M,M,M,M,M,M
MDW,2001-01-03 06:29,-87.7524,41.7860,M,M,M,250.00,11.00,M,M,M,M,0.00,M,M,M,M,M,M,M,M,M,M
MDW,2001-01-03 06:53,-87.7524,41.7860,24.00,21.00,88.13,250.00,16.00,M,29.39,M,M,0.00,M,M,M,M,M,M,M,M,M,M
MDW,2001-01-03 07:13,-87.7524,41.7860,M,M,M,250.00,11.00,M,M,M,M,0.00,M,M,M,M,M,M,M,M,M,M
MDW,2001-01-03 07:53,-87.7524,41.7860,26.00,23.00,88.23,250.00,13.00,M,29.37,M,M,0.00,M,M,M,M,M,M,M,M,M,M
MDW,2001-01-03 08:53,-87.7524,41.7860,27.00,24.00,88.28,250.00,14.00,M,29.36,M,M,0.00,M,M,M,M,M,M,M,M,M,M
MDW,2001-01-03 09:53,-87.7524,41.7860,28.00,24.00,84.72,260.00,11.00,M,29.37,M,M,0.00,M,M,M,M,M,M,M,M,M,M
MDW,2001-01-03 10:53,-87.7524,41.7860,28.00,24.00,84.72,260.00,7.00,M,29.39,M,M,0.00,M,M,M,M,M,M,M,M,M,M
MDW,2001-01-03 11:53,-87.7524,41.7860,28.00,25.00,88.33,250.00,9.00,M,29.38,M,M,0.00,M,M,M,M,M,M,M,M,M,M
MDW,2001-01-03 12:53,-87.7524,41.7860,28.00,25.00,88.33,270.00,6.00,M,29.41,M,M,0.00,M,M,M,M,M,M,M,M,M,M
MDW,2001-01-03 13:53,-87.7524,41.7860,28.00,25.00,88.33,250.00,9.00,M,29.41,M,M,0.00,M,M,M,M,M,M,M,M,M,M
MDW,2001-01-03 13:55,-87.7524,41.7860,M,M,M,250.00,9.00,M,M,M,M,0.00,M,M,M,M,M,M,M,M,M,M
MDW,2001-01-03 14:53,-87.7524,41.7860,28.00,25.00,88.33,270.00,5.00,M,29.41,M,M,0.00,M,M,M,M,M,M,M,M,M,M
MDW,2001-01-03 15:00,-87.7524,41.7860,M,M,M,260.00,7.00,M,M,M,M,0.00,M,M,M,M,M,M,M,M,M,M
MDW,2001-01-03 15:53,-87.7524,41.7860,28.00,25.00,88.33,260.00,7.00,M,29.41,M,M,0.00,M,M,M,M,M,M,M,M,M,M
MDW,2001-01-03 16:09,-87.7524,41.7860,M,M,M,250.00,7.00,M,M,M,M,0.00,M,M,M,M,M,M,M,M,M,M
MDW,2001-01-03 16:23,-87.7524,41.7860,M,M,M,250.00,7.00,M,M,M,M,0.00,M,M,M,M,M,M,M,M,M,M
MDW,2001-01-03 16:53,-87.7524,41.7860,28.00,25.00,88.33,260.00,7.00,M,29.41,M,M,0.00,M,M,M,M,M,M,M,M,M,M
MDW,2001-01-03 17:53,-87.7524,41.7860,28.00,26.00,92.08,250.00,5.00,M,29.41,M,M,0.00,M,M,M,M,M,M,M,M,M,M
MDW,2001-01-03 18:45,-87.7524,41.7860,M,M,M,280.00,4.00,M,M,M,M,0.00,M,M,M,M,M,M,M,M,M,M
MDW,2001-01-03 18:53,-87.7524,41.7860,28.00,26.00,92.08,290.00,4.00,M,29.42,M,M,0.00,M,M,M,M,M,M,M,M,M,M
MDW,2001-01-03 19:53,-87.7524,41.7860,27.00,22.00,81.17,20.00,6.00,M,29.43,M,M,0.00,M,M,M,M,M,M,M,M,M,M
MDW,2001-01-03 20:53,-87.7524,41.7860,25.00,22.00,88.18,10.00,7.00,M,29.45,M,M,0.00,M,M,M,M,M,M,M,M,M,M
MDW,2001-01-03 21:05,-87.7524,41.7860,M,M,M,350.00,8.00,M,M,M,M,0.00,M,M,M,M,M,M,M,M,M,M
MDW,2001-01-03 21:53,-87.7524,41.7860,23.00,19.00,84.39,340.00,5.00,M,29.44,M,M,0.00,M,M,M,M,M,M,M,M,M,M
MDW,2001-01-03 22:53,-87.7524,41.7860,23.00,19.00,84.39,340.00,7.00,M,29.44,M,M,0.00,M,M,M,M,M,M,M,M,M,M
MDW,2001-01-03 23:53,-87.7524,41.7860,23.00,19.00,84.39,340.00,3.00,M,29.45,M,M,0.00,M,M,M,M,M,M,M,M,M,M
MDW,2001-01-04 00:53,-87.7524,41.7860,23.00,19.00,84.39,310.00,3.00,M,29.45,M,M,0.00,M,M,M,M,M,M,M,M,M,M
MDW,2001-01-04 01:53,-87.7524,41.7860,24.00,20.00,84.46,240.00,3.00,M,29.44,M,M,0.00,M,M,M,M,M,M,M,M,M,M
MDW,2001-01-04 02:53,-87.7524,41.7860,24.00,20.00,84.46,230.00,7.00,M,29.42,M,M,0.00,M,M,M,M,M,M,M,M,M,M
MDW,2001-01-04 03:53,-87.7524,41.7860,25.00,21.00,84.53,220.00,11.00,M,29.43,M,M,0.00,M,M,M,M,M,M,M,M,M,M
MDW,2001-01-04 04:53,-87.7524,41.7860,26.00,22.00,84.59,220.00,9.00,M,29.40,M,M,0.00,M,M,M,M,M,M,M,M,M,M
MDW,2001-01-04 05:53,-87.7524,41.7860,27.00,23.00,84.66,200.00,11.00,M,29.36,M,M,0.00,M,M,M,M,M,M,M,M,M,M
MDW,2001-01-04 06:53,-87.7524,41.7860,29.00,24.00,81.32,210.00,13.00,M,29.33,M,M,0.00,M,M,M,M,M,M,M,M,M,M
MDW,2001-01-04 07:53,-87.7524,41.7860,29.00,24.00,81.32,230.00,13.00,M,29.31,M,M,18.00,M,M,M,M,M,M,M,M,M,M
MDW,2001-01-04 08:53,-87.7524,41.7860,29.00,24.00,81.32,210.00,13.00,M,29.27,M,M,19.00,M,M,M,M,M,M,M,M,M,M
MDW,2001-01-04 09:53,-87.7524,41.7860,28.00,24.00,84.72,210.00,14.00,M,29.23,M,M,23.00,M,M,M,M,M,M,M,M,M,M
MDW,2001-01-04 10:01,-87.7524,41.7860,M,M,M,200.00,13.00,M,M,M,M,20.00,M,M,M,M,M,M,M,M,M,M
MDW,2001-01-04 10:53,-87.7524,41.7860,27.00,24.00,88.28,210.00,15.00,M,29.21,M,M,0.00,M,M,M,M,M,M,M,M,M,M
MDW,2001-01-04 11:02,-87.7524,41.7860,M,M,M,210.00,11.00,M,M,M,M,0.00,M,M,M,M,M,M,M,M,M,M
MDW,2001-01-04 11:31,-87.7524,41.7860,M,M,M,200.00,14.00,M,M,M,M,0.00,M,M,M,M,M,M,M,M,M,M
MDW,2001-01-04 11:53,-87.7524,41.7860,27.00,24.00,88.28,200.00,15.00,M,29.14,M,M,20.00,M,M,M,M,M,M,M,M,M,M
MDW,2001-01-04 12:53,-87.7524,41.7860,27.00,25.00,92.05,200.00,19.00,M,29.06,M,M,24.00,M,M,M,M,M,M,M,M,M,M
MDW,2001-01-04 13:53,-87.7524,41.7860,28.00,24.00,84.72,190.00,18.00,M,28.99,M,M,26.00,M,M,M,M,M,M,M,M,M,M
MDW,2001-01-04 14:53,-87.7524,41.7860,27.00,23.00,84.66,210.00,16.00,M,28.98,M,M,0.00,M,M,M,M,M,M,M,M,M,M
MDW,2001-01-04 15:53,-87.7524,41.7860,28.00,24.00,84.72,220.00,13.00,M,28.96,M,M,20.00,M,M,M,M,M,M,M,M,M,M
MDW,2001-01-04 16:53,-87.7524,41.7860,29.00,24.00,81.32,220.00,12.00,M,28.93,M,M,20.00,M,M,M,M,M,M,M,M,M,M
MDW,2001-01-04 17:53,-87.7524,41.7860,32.00,26.00,78.25,240.00,13.00,M,28.90,M,M,0.00,M,M,M,M,M,M,M,M,M,M
MDW,2001-01-04 18:53,-87.7524,41.7860,33.00,27.00,78.34,250.00,15.00,M,28.87,M,M,22.00,M,M,M,M,M,M,M,M,M,M
MDW,2001-01-04 19:53,-87.7524,41.7860,34.00,28.00,78.43,270.00,13.00,M,28.88,M,M,0.00,M,M,M,M,M,M,M,M,M,M
MDW,2001-01-04 20:53,-87.7524,41.7860,34.00,22.00,61.09,270.00,12.00,M,28.88,M,M,19.00,M,M,M,M,M,M,M,M,M,M
MDW,2001-01-04 21:53,-87.7524,41.7860,33.00,28.00,81.63,280.00,14.00,M,28.89,M,M,0.00,M,M,M,M,M,M,M,M,M,M
MDW,2001-01-04 22:53,-87.7524,41.7860,34.00,27.00,75.26,280.00,11.00,M,28.90,M,M,0.00,M,M,M,M,M,M,M,M,M,M
MDW,2001-01-04 23:53,-87.7524,41.7860,33.00,27.00,78.34,270.00,10.00,M,28.93,M,M,0.00,M,M,M,M,M,M,M,M,M,M
MDW,2001-01-05 00:53,-87.7524,41.7860,33.00,27.00,78.34,280.00,10.00,M,28.93,M,M,0.00,M,M,M,M,M,M,M,M,M,M
MDW,2001-01-05 01:53,-87.7524,41.7860,32.00,26.00,78.25,260.00,10.00,M,28.94,M,M,0.00,M,M,M,M,M,M,M,M,M,M
MDW,2001-01-05 02:53,-87.7524,41.7860,32.00,26.00,78.25,270.00,11.00,M,28.96,M,M,0.00,M,M,M,M,M,M,M,M,M,M
MDW,2001-01-05 03:53,-87.7524,41.7860,34.00,26.00,72.22,280.00,13.00,M,28.96,M,M,18.00,M,M,M,M,M,M,M,M,M,M
MDW,2001-01-05 04:53,-87.7524,41.7860,35.00,26.00,69.39,290.00,13.00,0.09,28.96,M,M,19.00,M,M,M,M,M,M,M,M,M,M
MDW,2001-01-05 05:18,-87.7524,41.7860,M,M,M,300.00,18.00,M,M,M,M,26.00,M,M,M,M,M,M,M,M,M,M
MDW,2001-01-05 05:53,-87.7524,41.7860,35.00,25.00,66.57,300.00,19.00,0.07,28.96,M,M,23.00,M,M,M,M,M,M,M,M,M,M
MDW,2001-01-05 06:53,-87.7524,41.7860,36.00,26.00,66.69,300.00,15.00,0.04,28.96,M,M,20.00,M,M,M,M,M,M,M,M,M,M
MDW,2001-01-05 07:53,-87.7524,41.7860,36.00,26.00,66.69,300.00,14.00,0.06,28.97,M,M,0.00,M,M,M,M,M,M,M,M,M,M
MDW,2001-01-05 08:53,-87.7524,41.7860,37.00,25.00,61.50,320.00,15.00,0.05,29.01,M,M,0.00,M,M,M,M,M,M,M,M,M,M
MDW,2001-01-05 09:53,-87.7524,41.7860,37.00,24.00,58.99,320.00,17.00,0.03,29.05,M,M,23.00,M,M,M,M,M,M,M,M,M,M
MDW,2001-01-05 10:53,-87.7524,41.7860,34.00,24.00,66.45,300.00,10.00,0.01,29.08,M,M,0.00,M,M,M,M,M,M,M,M,M,M
MDW,2001-01-05 11:53,-87.7524,41.7860,33.00,24.00,69.16,300.00,10.00,M,29.12,M,M,0.00,M,M,M,M,M,M,M,M,M,M
MDW,2001-01-05 12:53,-87.7524,41.7860,32.00,22.00,66.20,300.00,9.00,M,29.15,M,M,0.00,M,M,M,M,M,M,M,M,M,M
MDW,2001-01-05 13:53,-87.7524,41.7860,30.00,20.00,65.94,310.00,9.00,M,29.17,M,M,0.00,M,M,M,M,M,M,M,M,M,M
MDW,2001-01-05 14:53,-87.7524,41.7860,29.00,18.00,63.05,310.00,9.00,M,29.19,M,M,0.00,M,M,M,M,M,M,M,M,M,M
MDW,2001-01-05 15:53,-87.7524,41.7860,27.00,18.00,68.45,280.00,4.00,M,29.18,M,M,0.00,M,M,M,M,M,M,M,M,M,M
MDW,2001-01-05 16:53,-87.7524,41.7860,26.00,17.00,68.32,270.00,6.00,M,29.20,M,M,0.00,M,M,M,M,M,M,M,M,M,M
MDW,2001-01-05 17:53,-87.7524,41.7860,24.00,16.00,71.11,280.00,4.00,M,29.18,M,M,0.00,M,M,M,M,M,M,M,M,M,M
MDW,2001-01-05 18:53,-87.7524,41.7860,20.00,14.00,77.16,270.00,5.00,M,29.18,M,M,0.00,M,M,M,M,M,M,M,M,M,M
MDW,2001-01-05 19:53,-87.7524,41.7860,20.00,15.00,80.60,260.00,7.00,M,29.19,M,M,0.00,M,M,M,M,M,M,M,M,M,M
MDW,2001-01-05 20:53,-87.7524,41.7860,22.00,15.00,74.05,260.00,7.00,M,29.20,M,M,0.00,M,M,M,M,M,M,M,M,M,M
MDW,2001-01-05 21:53,-87.7524,41.7860,21.00,16.00,80.69,260.00,8.00,M,29.18,M,M,0.00,M,M,M,M,M,M,M,M,M,M
MDW,2001-01-05 22:53,-87.7524,41.7860,21.00,16.00,80.69,230.00,6.00,M,29.17,M,M,0.00,M,M,M,M,M,M,M,M,M,M
MDW,2001-01-05 23:53,-87.7524,41.7860,21.00,17.00,84.26,240.00,5.00,M,29.14,M,M,0.00,M,M,M,M,M,M,M,M,M,M
MDW,2001-01-06 00:53,-87.7524,41.7860,22.00,17.00,80.77,210.00,10.00,M,29.13,M,M,0.00,M,M,M,M,M,M,M,M,M,M
MDW,2001-01-06 01:53,-87.7524,41.7860,22.00,17.00,80.77,190.00,5.00,M,29.13,M,M,0.00,M,M,M,M,M,M,M,M,M,M
MDW,2001-01-06 02:53,-87.7524,41.7860,24.00,17.00,74.26,220.00,9.00,M,29.12,M,M,15.00,M,M,M,M,M,M,M,M,M,M
MDW,2001-01-06 03:53,-87.7524,41.7860,26.00,17.00,68.32,210.00,9.00,M,29.10,M,M,0.00,M,M,M,M,M,M,M,M,M,M
MDW,2001-01-06 04:53,-87.7524,41.7860,28.00,18.00,65.69,200.00,12.00,M,29.04,M,M,0.00,M,M,M,M,M,M,M,M,M,M
MDW,2001-01-06 05:53,-87.7524,41.7860,30.00,19.00,63.18,210.00,9.00,0.01,29.00,M,M,17.00,M,M,M,M,M,M,M,M,M,M
MDW,2001-01-06 06:53,-87.7524,41.7860,31.00,21.00,66.07,220.00,12.00,0.02,28.98,M,M,18.00,M,M,M,M,M,M,M,M,M,M
MDW,2001-01-06 07:53,-87.7524,41.7860,35.00,24.00,63.85,240.00,17.00,0.01,28.97,M,M,23.00,M,M,M,M,M,M,M,M,M,M
MDW,2001-01-06 08:53,-87.7524,41.7860,34.00,24.00,66.45,240.00,15.00,0.01,28.96,M,M,0.00,M,M,M,M,M,M,M,M,M,M
MDW,2001-01-06 09:53,-87.7524,41.7860,34.00,25.00,69.28,260.00,13.00,M,28.98,M,M,0.00,M,M,M,M,M,M,M,M,M,M
MDW,2001-01-06 10:53,-87.7524,41.7860,33.00,25.00,72.11,240.00,9.00,M,28.98,M,M,0.00,M,M,M,M,M,M,M,M,M,M
MDW,2001-01-06 11:53,-87.7524,41.7860,32.00,25.00,75.07,250.00,9.00,M,28.98,M,M,0.00,M,M,M,M,M,M,M,M,M,M
MDW,2001-01-06 12:53,-87.7524,41.7860,31.00,25.00,78.16,260.00,7.00,M,29.02,M,M,0.00,M,M,M,M,M,M,M,M,M,M
MDW,2001-01-06 13:53,-87.7524,41.7860,30.00,25.00,81.40,0.00,3.00,M,29.02,M,M,0.00,M,M,M,M,M,M,M,M,M,M
MDW,2001-01-06 14:53,-87.7524,41.7860,28.00,24.00,84.72,260.00,4.00,M,29.04,M,M,0.00,M,M,M,M,M,M,M,M,M,M
MDW,2001-01-06 15:53,-87.7524,41.7860,28.00,24.00,84.72,170.00,5.00,M,29.04,M,M,0.00,M,M,M,M,M,M,M,M,M,M
MDW,2001-01-06 16:25,-87.7524,41.7860,M,M,M,220.00,3.00,M,M,M,M,0.00,M,M,M,M,M,M,M,M,M,M
MDW,2001-01-06 16:53,-87.7524,41.7860,29.00,25.00,84.79,260.00,5.00,M,29.05,M,M,0.00,M,M,M,M,M,M,M,M,M,M
MDW,2001-01-06 17:53,-87.7524,41.7860,30.00,26.00,84.85,250.00,7.00,M,29.05,M,M,0.00,M,M,M,M,M,M,M,M,M,M
MDW,2001-01-06 18:53,-87.7524,41.7860,30.00,26.00,84.85,260.00,6.00,M,29.06,M,M,0.00,M,M,M,M,M,M,M,M,M,M
MDW,2001-01-06 19:53,-87.7524,41.7860,30.00,27.00,88.44,250.00,5.00,M,29.06,M,M,0.00,M,M,M,M,M,M,M,M,M,M
MDW,2001-01-06 20:53,-87.7524,41.7860,31.00,27.00,84.92,250.00,6.00,M,29.07,M,M,0.00,M,M,M,M,M,M,M,M,M,M
MDW,2001-01-06 21:53,-87.7524,41.7860,31.00,28.00,88.48,250.00,9.00,M,29.07,M,M,0.00,M,M,M,M,M,M,M,M,M,M
MDW,2001-01-06 22:53,-87.7524,41.7860,32.00,28.00,84.98,260.00,9.00,M,29.08,M,M,0.00,M,M,M,M,M,M,M,M,M,M
MDW,2001-01-06 22:58,-87.7524,41.7860,M,M,M,260.00,9.00,M,M,M,M,0.00,M,M,M,M,M,M,M,M,M,M
MDW,2001-01-06 23:53,-87.7524,41.7860,32.00,28.00,84.98,250.00,9.00,M,29.09,M,M,0.00,M,M,M,M,M,M,M,M,M,M
MDW,2001-01-07 00:53,-87.7524,41.7860,33.00,29.00,85.04,260.00,7.00,M,29.10,M,M,0.00,M,M,M,M,M,M,M,M,M,M
MDW,2001-01-07 01:53,-87.7524,41.7860,33.00,29.00,85.04,270.00,8.00,M,29.12,M,M,0.00,M,M,M,M,M,M,M,M,M,M
MDW,2001-01-07 02:53,-87.7524,41.7860,33.00,29.00,85.04,270.00,7.00,M,29.14,M,M,0.00,M,M,M,M,M,M,M,M,M,M
MDW,2001-01-07 03:53,-87.7524,41.7860,33.00,29.00,85.04,270.00,6.00,M,29.17,M,M,0.00,M,M,M,M,M,M,M,M,M,M
MDW,2001-01-07 04:53,-87.7524,41.7860,34.00,29.00,81.71,280.00,6.00,M,29.18,M,M,0.00,M,M,M,M,M,M,M,M,M,M
MDW,2001-01-07 05:53,-87.7524,41.7860,35.00,27.00,72.32,310.00,9.00,M,29.17,M,M,0.00,M,M,M,M,M,M,M,M,M,M
MDW,2001-01-07 06:16,-87.7524,41.7860,M,M,M,330.00,13.00,M,M,M,M,0.00,M,M,M,M,M,M,M,M,M,M
MDW,2001-01-07 06:53,-87.7524,41.7860,33.00,25.00,72.11,340.00,13.00,M,29.18,M,M,0.00,M,M,M,M,M,M,M,M,M,M
MDW,2001-01-07 07:29,-87.7524,41.7860,M,M,M,340.00,11.00,M,M,M,M,0.00,M,M,M,M,M,M,M,M,M,M
MDW,2001-01-07 07:53,-87.7524,41.7860,32.00,22.00,66.20,320.00,13.00,M,29.20,M,M,0.00,M,M,M,M,M,M,M,M,M,M
MDW,2001-01-07 08:53,-87.7524,41.7860,31.00,18.00,58.12,320.00,9.00,M,29.21,M,M,0.00,M,M,M,M,M,M,M,M,M,M
MDW,2001-01-07 09:53,-87.7524,41.7860,30.00,18.00,60.53,300.00,11.00,M,29.23,M,M,0.00,M,M,M,M,M,M,M,M,M,M
MDW,2001-01-07 10:53,-87.7524,41.7860,28.00,18.00,65.69,320.00,10.00,M,29.26,M,M,0.00,M,M,M,M,M,M,M,M,M,M
MDW,2001-01-07 11:31,-87.7524,41.7860,M,M,M,320.00,8.00,M,M,M,M,0.00,M,M,M,M,M,M,M,M,M,M
MDW,2001-01-07 11:53,-87.7524,41.7860,27.00,18.00,68.45,330.00,10.00,M,29.29,M,M,0.00,M,M,M,M,M,M,M,M,M,M
MDW,2001-01-07 12:53,-87.7524,41.7860,26.00,18.00,71.33,330.00,10.00,M,29.30,M,M,0.00,M,M,M,M,M,M,M,M,M,M
MDW,2001-01-07 13:53,-87.7524,41.7860,27.00,19.00,71.45,330.00,11.00,M,29.32,M,M,0.00,M,M,M,M,M,M,M,M,M,M
MDW,2001-01-07 14:53,-87.7524,41.7860,26.00,18.00,71.33,330.00,9.00,M,29.32,M,M,0.00,M,M,M,M,M,M,M,M,M,M
MDW,2001-01-07 15:53,-87.7524,41.7860,25.00,17.00,71.22,320.00,7.00,M,29.32,M,M,0.00,M,M,M,M,M,M,M,M,M,M
MDW,2001-01-07 16:53,-87.7524,41.7860,24.00,17.00,74.26,310.00,8.00,M,29.33,M,M,0.00,M,M,M,M,M,M,M,M,M,M
MDW,2001-01-07 17:53,-87.7524,41.7860,23.00,16.00,74.15,320.00,7.00,M,29.34,M,M,0.00,M,M,M,M,M,M,M,M,M,M
MDW,2001-01-07 18:53,-87.7524,41.7860,22.00,15.00,74.05,310.00,6.00,M,29.33,M,M,0.00,M,M,M,M,M,M,M,M,M,M
MDW,2001-01-07 19:53,-87.7524,41.7860,20.00,15.00,80.60,300.00,5.00,M,29.34,M,M,0.00,M,M,M,M,M,M,M,M,M,M
MDW,2001-01-07 20:53,-87.7524,41.7860,23.00,15.00,70.99,320.00,9.00,M,29.34,M,M,0.00,M,M,M,M,M,M,M,M,M,M
MDW,2001-01-07 21:53,-87.7524,41.7860,23.00,17.00,77.44,330.00,10.00,M,29.34,M,M,0.00,M,M,M,M,M,M,M,M,M,M
MDW,2001-01-07 22:53,-87.7524,41.7860,21.00,16.00,80.69,330.00,9.00,M,29.34,M,M,0.00,M,M,M,M,M,M,M,M,M,M
MDW,2001-01-07 23:53,-87.7524,41.7860,20.00,15.00,80.60,330.00,7.00,M,29.36,M,M,0.00,M,M,M,M,M,M,M,M,M,M
MDW,2001-01-08 00:53,-87.7524,41.7860,19.00,13.00,77.06,320.00,8.00,M,29.37,M,M,0.00,M,M,M,M,M,M,M,M,M,M
MDW,2001-01-08 01:53,-87.7524,41.7860,19.00,14.00,80.52,340.00,8.00,M,29.38,M,M,0.00,M,M,M,M,M,M,M,M,M,M
MDW,2001-01-08 02:53,-87.7524,41.7860,21.00,15.00,77.25,320.00,7.00,M,29.40,M,M,0.00,M,M,M,M,M,M,M,M,M,M
MDW,2001-01-08 03:53,-87.7524,41.7860,24.00,15.00,68.08,350.00,11.00,M,29.41,M,M,0.00,M,M,M,M,M,M,M,M,M,M
MDW,2001-01-08 04:53,-87.7524,41.7860,26.00,16.00,65.43,360.00,8.00,M,29.40,M,M,0.00,M,M,M,M,M,M,M,M,M,M
MDW,2001-01-08 05:53,-87.7524,41.7860,28.00,17.00,62.91,350.00,8.00,M,29.40,M,M,0.00,M,M,M,M,M,M,M,M,M,M
MDW,2001-01-08 06:53,-87.7524,41.7860,28.00,17.00,62.91,20.00,12.00,M,29.39,M,M,0.00,M,M,M,M,M,M,M,M,M,M
MDW,2001-01-08 07:53,-87.7524,41.7860,27.00,18.00,68.45,360.00,8.00,M,29.39,M,M,0.00,M,M,M,M,M,M,M,M,M,M
MDW,2001-01-08 07:54,-87.7524,41.7860,M,M,M,360.00,10.00,M,M,M,M,0.00,M,M,M,M,M,M,M,M,M,M
MDW,2001-01-08 08:45,-87.7524,41.7860,M,M,M,360.00,9.00,M,M,M,M,0.00,M,M,M,M,M,M,M,M,M,M
MDW,2001-01-08 08:53,-87.7524,41.7860,27.00,18.00,68.45,20.00,11.00,M,29.41,M,M,0.00,M,M,M,M,M,M,M,M,M,M
MDW,2001-01-08 09:53,-87.7524,41.7860,27.00,18.00,68.45,10.00,7.00,M,29.42,M,M,0.00,M,M,M,M,M,M,M,M,M,M
MDW,2001-01-08 10:06,-87.7524,41.7860,M,M,M,360.00,8.00,M,M,M,M,0.00,M,M,M,M,M,M,M,M,M,M
MDW,2001-01-08 10:18,-87.7524,41.7860,M,M,M,360.00,8.00,M,M,M,M,0.00,M,M,M,M,M,M,M,M,M,M
MDW,2001-01-08 10:53,-87.7524,41.7860,24.00,15.00,68.08,330.00,8.00,M,29.44,M,M,0.00,M,M,M,M,M,M,M,M,M,M
MDW,2001-01-08 11:53,-87.7524,41.7860,23.00,14.00,67.96,330.00,8.00,M,29.46,M,M,0.00,M,M,M,M,M,M,M,M,M,M
MDW,2001-01-08 12:53,-87.7524,41.7860,22.00,7.00,51.88,340.00,9.00,M,29.49,M,M,0.00,M,M,M,M,M,M,M,M,M,M
MDW,2001-01-08 13:53,-87.7524,41.7860,21.00,13.00,70.76,340.00,8.00,M,29.50,M,M,0.00,M,M,M,M,M,M,M,M,M,M
MDW,2001-01-08 14:53,-87.7524,41.7860,20.00,11.00,67.58,330.00,9.00,M,29.51,M,M,0.00,M,M,M,M,M,M,M,M,M,M
MDW,2001-01-08 15:53,-87.7524,41.7860,19.00,11.00,70.53,330.00,9.00,M,29.52,M,M,0.00,M,M,M,M,M,M,M,M,M,M
MDW,2001-01-08 16:53,-87.7524,41.7860,17.00,8.00,67.20,330.00,9.00,M,29.53,M,M,0.00,M,M,M,M,M,M,M,M,M,M
MDW,2001-01-08 17:53,-87.7524,41.7860,19.00,12.00,73.73,320.00,8.00,M,29.54,M,M,0.00,M,M,M,M,M,M,M,M,M,M
MDW,2001-01-08 18:53,-87.7524,41.7860,18.00,9.00,67.33,330.00,11.00,M,29.55,M,M,0.00,M,M,M,M,M,M,M,M,M,M
MDW,2001-01-08 19:53,-87.7524,41.7860,18.00,9.00,67.33,330.00,9.00,M,29.57,M,M,0.00,M,M,M,M,M,M,M,M,M,M
MDW,2001-01-08 20:53,-87.7524,41.7860,17.00,6.00,61.38,330.00,10.00,M,29.57,M,M,0.00,M,M,M,M,M,M,M,M,M,M
MDW,2001-01-08 21:53,-87.7524,41.7860,16.00,9.00,73.41,320.00,8.00,M,29.57,M,M,0.00,M,M,M,M,M,M,M,M,M,M
MDW,2001-01-08 22:53,-87.7524,41.7860,14.00,9.00,80.10,320.00,6.00,M,29.58,M,M,0.00,M,M,M,M,M,M,M,M,M,M
MDW,2001-01-08 23:53,-87.7524,41.7860,12.00,7.00,79.93,290.00,4.00,M,29.61,M,M,0.00,M,M,M,M,M,M,M,M,M,M
MDW,2001-01-09 00:53,-87.7524,41.7860,13.00,8.00,80.02,310.00,5.00,M,29.62,M,M,0.00,M,M,M,M,M,M,M,M,M,M
MDW,2001-01-09 01:53,-87.7524,41.7860,13.00,9.00,83.70,280.00,4.00,M,29.62,M,M,0.00,M,M,M,M,M,M,M,M,M,M
MDW,2001-01-09 02:53,-87.7524,41.7860,18.00,12.00,76.97,270.00,6.00,M,29.63,M,M,0.00,M,M,M,M,M,M,M,M,M,M
MDW,2001-01-09 03:53,-87.7524,41.7860,21.00,13.00,70.76,280.00,8.00,M,29.65,M,M,0.00,M,M,M,M,M,M,M,M,M,M
MDW,2001-01-09 04:53,-87.7524,41.7860,23.00,13.00,65.03,280.00,12.00,M,29.65,M,M,0.00,M,M,M,M,M,M,M,M,M,M
MDW,2001-01-09 05:53,-87.7524,41.7860,24.00,14.00,65.17,270.00,12.00,M,29.62,M,M,0.00,M,M,M,M,M,M,M,M,M,M
MDW,2001-01-09 06:53,-87.7524,41.7860,25.00,15.00,65.30,270.00,11.00,M,29.61,M,M,0.00,M,M,M,M,M,M,M,M,M,M
MDW,2001-01-09 07:53,-87.7524,41.7860,24.00,15.00,68.08,280.00,12.00,M,29.60,M,M,0.00,M,M,M,M,M,M,M,M,M,M
MDW,2001-01-09 08:53,-87.7524,41.7860,24.00,15.00,68.08,250.00,13.00,M,29.60,M,M,0.00,M,M,M,M,M,M,M,M,M,M
MDW,2001-01-09 09:53,-87.7524,41.7860,23.00,15.00,70.99,260.00,14.00,M,29.59,M,M,0.00,M,M,M,M,M,M,M,M,M,M
MDW,2001-01-09 10:53,-87.7524,41.7860,21.00,14.00,73.94,240.00,13.00,M,29.58,M,M,0.00,M,M,M,M,M,M,M,M,M,M
MDW,2001-01-09 11:53,-87.7524,41.7860,20.00,16.00,84.19,250.00,11.00,M,29.58,M,M,0.00,M,M,M,M,M,M,M,M,M,M
MDW,2001-01-09 12:53,-87.7524,41.7860,20.00,14.00,77.16,250.00,12.00,M,29.57,M,M,0.00,M,M,M,M,M,M,M,M,M,M
MDW,2001-01-09 13:53,-87.7524,41.7860,20.00,13.00,73.84,250.00,13.00,M,29.56,M,M,19.00,M,M,M,M,M,M,M,M,M,M
MDW,2001-01-09 14:53,-87.7524,41.7860,20.00,13.00,73.84,250.00,12.00,M,29.55,M,M,0.00,M,M,M,M,M,M,M,M,M,M
MDW,2001-01-09 15:53,-87.7524,41.7860,20.00,13.00,73.84,250.00,13.00,M,29.54,M,M,0.00,M,M,M,M,M,M,M,M,M,M
MDW,2001-01-09 16:53,-87.7524,41.7860,20.00,13.00,73.84,250.00,15.00,M,29.54,M,M,18.00,M,M,M,M,M,M,M,M,M,M
MDW,2001-01-09 17:53,-87.7524,41.7860,21.00,14.00,73.94,240.00,11.00,M,29.52,M,M,0.00,M,M,M,M,M,M,M,M,M,M
MDW,2001-01-09 18:53,-87.7524,41.7860,21.00,15.00,77.25,250.00,11.00,M,29.51,M,M,0.00,M,M,M,M,M,M,M,M,M,M
MDW,2001-01-09 19:53,-87.7524,41.7860,20.00,15.00,80.60,250.00,10.00,M,29.52,M,M,0.00,M,M,M,M,M,M,M,M,M,M
MDW,2001-01-09 20:53,-87.7524,41.7860,20.00,13.00,73.84,240.00,11.00,M,29.52,M,M,0.00,M,M,M,M,M,M,M,M,M,M
MDW,2001-01-09 21:53,-87.7524,41.7860,20.00,14.00,77.16,230.00,6.00,M,29.51,M,M,0.00,M,M,M,M,M,M,M,M,M,M
MDW,2001-01-09 22:53,-87.7524,41.7860,21.00,15.00,77.25,240.00,10.00,M,29.51,M,M,0.00,M,M,M,M,M,M,M,M,M,M
MDW,2001-01-09 23:53,-87.7524,41.7860,21.00,15.00,77.25,240.00,8.00,M,29.52,M,M,0.00,M,M,M,M,M,M,M,M,M,M
MDW,2001-01-10 00:53,-87.7524,41.7860,21.00,15.00,77.25,230.00,7.00,M,29.52,M,M,0.00,M,M,M,M,M,M,M,M,M,M
MDW,2001-01-10 01:53,-87.7524,41.7860,22.00,15.00,74.05,210.00,8.00,M,29.52,M,M,0.00,M,M,M,M,M,M,M,M,M,M
MDW,2001-01-10 02:53,-87.7524,41.7860,23.00,16.00,74.15,210.00,9.00,M,29.52,M,M,0.00,M,M,M,M,M,M,M,M,M,M
MDW,2001-01-10 03:53,-87.7524,41.7860,26.00,18.00,71.33,220.00,10.00,M,29.51,M,M,0.00,M,M,M,M,M,M,M,M,M,M
MDW,2001-01-10 04:53,-87.7524,41.7860,29.00,19.00,65.81,220.00,8.00,M,29.51,M,M,0.00,M,M,M,M,M,M,M,M,M,M
MDW,2001-01-10 05:53,-87.7524,41.7860,32.00,20.00,60.81,210.00,10.00,M,29.49,M,M,0.00,M,M,M,M,M,M,M,M,M,M
MDW,2001-01-10 06:53,-87.7524,41.7860,34.00,21.00,58.56,190.00,9.00,M,29.47,M,M,0.00,M,M,M,M,M,M,M,M,M,M
MDW,2001-01-10 07:53,-87.7524,41.7860,35.00,22.00,58.70,200.00,11.00,M,29.44,M,M,0.00,M,M,M,M,M,M,M,M,M,M
MDW,2001-01-10 08:53,-87.7524,41.7860,35.00,24.00,63.85,210.00,8.00,M,29.44,M,M,0.00,M,M,M,M,M,M,M,M,M,M
MDW,2001-01-10 09:53,-87.7524,41.7860,34.00,24.00,66.45,210.00,14.00,M,29.43,M,M,0.00,M,M,M,M,M,M,M,M,M,M
MDW,2001-01-10 10:53,-87.7524,41.7860,32.00,24.00,72.00,210.00,10.00,M,29.43,M,M,0.00,M,M,M,M,M,M,M,M,M,M
MDW,2001-01-10 11:53,-87.7524,41.7860,31.00,24.00,74.97,220.00,9.00,M,29.44,M,M,17.00,M,M,M,M,M,M,M,M,M,M
MDW,2001-01-10 12:53,-87.7524,41.7860,30.00,25.00,81.40,220.00,9.00,M,29.44,M,M,16.00,M,M,M,M,M,M,M,M,M,M
MDW,2001-01-10 13:53,-87.7524,41.7860,30.00,25.00,81.40,210.00,10.00,M,29.45,M,M,0.00,M,M,M,M,M,M,M,M,M,M
MDW,2001-01-10 14:53,-87.7524,41.7860,29.00,24.00,81.32,210.00,10.00,M,29.44,M,M,0.00,M,M,M,M,M,M,M,M,M,M
MDW,2001-01-10 15:53,-87.7524,41.7860,29.00,23.00,77.98,210.00,8.00,M,29.44,M,M,0.00,M,M,M,M,M,M,M,M,M,M
MDW,2001-01-10 16:53,-87.7524,41.7860,29.00,23.00,77.98,220.00,7.00,M,29.46,M,M,0.00,M,M,M,M,M,M,M,M,M,M
MDW,2001-01-10 17:53,-87.7524,41.7860,29.00,22.00,74.77,210.00,8.00,M,29.45,M,M,0.00,M,M,M,M,M,M,M,M,M,M
MDW,2001-01-10 18:53,-87.7524,41.7860,28.00,21.00,74.67,220.00,5.00,M,29.43,M,M,0.00,M,M,M,M,M,M,M,M,M,M
MDW,2001-01-10 19:53,-87.7524,41.7860,28.00,21.00,74.67,220.00,5.00,M,29.43,M,M,0.00,M,M,M,M,M,M,M,M,M,M
MDW,2001-01-10 20:53,-87.7524,41.7860,28.00,20.00,71.56,210.00,6.00,M,29.44,M,M,0.00,M,M,M,M,M,M,M,M,M,M
MDW,2001-01-10 21:53,-87.7524,41.7860,27.00,21.00,77.80,200.00,7.00,M,29.44,M,M,0.00,M,M,M,M,M,M,M,M,M,M
MDW,2001-01-10 22:53,-87.7524,41.7860,26.00,20.00,77.71,200.00,7.00,M,29.45,M,M,0.00,M,M,M,M,M,M,M,M,M,M
MDW,2001-01-10 23:53,-87.7524,41.7860,25.00,20.00,81.01,220.00,6.00,M,29.44,M,M,0.00,M,M,M,M,M,M,M,M,M,M
MDW,2001-01-11 00:53,-87.7524,41.7860,25.00,20.00,81.01,210.00,6.00,M,29.45,M,M,0.00,M,M,M,M,M,M,M,M,M,M
MDW,2001-01-11 01:53,-87.7524,41.7860,25.00,20.00,81.01,210.00,7.00,M,29.47,M,M,0.00,M,M,M,M,M,M,M,M,M,M
MDW,2001-01-11 02:53,-87.7524,41.7860,27.00,21.00,77.80,210.00,6.00,M,29.47,M,M,0.00,M,M,M,M,M,M,M,M,M,M
MDW,2001-01-11 03:53,-87.7524,41.7860,29.00,22.00,74.77,220.00,5.00,M,29.46,M,M,0.00,M,M,M,M,M,M,M,M,M,M
MDW,2001-01-11 04:53,-87.7524,41.7860,35.00,25.00,66.57,210.00,6.00,M,29.45,M,M,0.00,M,M,M,M,M,M,M,M,M,M
MDW,2001-01-11 05:53,-87.7524,41.7860,37.00,26.00,64.11,200.00,7.00,M,29.43,M,M,0.00,M,M,M,M,M,M,M,M,M,M
MDW,2001-01-11 06:53,-87.7524,41.7860,37.00,26.00,64.11,210.00,8.00,M,29.42,M,M,0.00,M,M,M,M,M,M,M,M,M,M
MDW,2001-01-11 07:53,-87.7524,41.7860,38.00,26.00,61.64,210.00,5.00,M,29.41,M,M,0.00,M,M,M,M,M,M,M,M,M,M
MDW,2001-01-11 08:53,-87.7524,41.7860,38.00,26.00,61.64,200.00,8.00,M,29.41,M,M,0.00,M,M,M,M,M,M,M,M,M,M
MDW,2001-01-11 09:53,-87.7524,41.7860,35.00,25.00,66.57,190.00,4.00,M,29.41,M,M,0.00,M,M,M,M,M,M,M,M,M,M
MDW,2001-01-11 10:53,-87.7524,41.7860,35.00,25.00,66.57,200.00,8.00,M,29.42,M,M,0.00,M,M,M,M,M,M,M,M,M,M
MDW,2001-01-11 11:53,-87.7524,41.7860,32.00,25.00,75.07,210.00,5.00,M,29.43,M,M,0.00,M,M,M,M,M,M,M,M,M,M
MDW,2001-01-11 12:53,-87.7524,41.7860,31.00,25.00,78.16,220.00,3.00,M,29.43,M,M,0.00,M,M,M,M,M,M,M,M,M,M
MDW,2001-01-11 13:53,-87.7524,41.7860,30.00,24.00,78.07,210.00,4.00,M,29.43,M,M,0.00,M,M,M,M,M,M,M,M,M,M
MDW,2001-01-11 14:53,-87.7524,41.7860,29.00,24.00,81.32,220.00,5.00,M,29.43,M,M,0.00,M,M,M,M,M,M,M,M,M,M
MDW,2001-01-11 15:53,-87.7524,41.7860,29.00,24.00,81.32,260.00,3.00,M,29.43,M,M,0.00,M,M,M,M,M,M,M,M,M,M
MDW,2001-01-11 16:53,-87.7524,41.7860,29.00,25.00,84.79,260.00,3.00,M,29.45,M,M,0.00,M,M,M,M,M,M,M,M,M,M
MDW,2001-01-11 17:53,-87.7524,41.7860,29.00,25.00,84.79,200.00,3.00,M,29.46,M,M,0.00,M,M,M,M,M,M,M,M,M,M
MDW,2001-01-11 18:53,-87.7524,41.7860,29.00,25.00,84.79,210.00,4.00,M,29.46,M,M,0.00,M,M,M,M,M,M,M,M,M,M
MDW,2001-01-11 19:53,-87.7524,41.7860,29.00,26.00,88.38,240.00,5.00,M,29.47,M,M,0.00,M,M,M,M,M,M,M,M,M,M
MDW,2001-01-11 20:53,-87.7524,41.7860,30.00,23.00,74.87,250.00,3.00,M,29.47,M,M,0.00,M,M,M,M,M,M,M,M,M,M
MDW,2001-01-11 21:53,-87.7524,41.7860,30.00,26.00,84.85,0.00,0.00,M,29.47,M,M,0.00,M,M,M,M,M,M,M,M,M,M
MDW,2001-01-11 22:53,-87.7524,41.7860,30.00,26.00,84.85,250.00,4.00,M,29.48,M,M,0.00,M,M,M,M,M,M,M,M,M,M
MDW,2001-01-11 23:53,-87.7524,41.7860,29.00,25.00,84.79,250.00,4.00,M,29.48,M,M,0.00,M,M,M,M,M,M,M,M,M,M
MDW,2001-01-11 23:54,-87.7524,41.7860,M,M,M,250.00,4.00,M,M,M,M,0.00,M,M,M,M,M,M,M,M,M,M
MDW,2001-01-11 23:58,-87.7524,41.7860,M,M,M,250.00,5.00,M,M,M,M,0.00,M,M,M,M,M,M,M,M,M,M
MDW,2001-01-12 00:53,-87.7524,41.7860,30.00,27.00,88.44,260.00,5.00,M,29.50,M,M,0.00,M,M,M,M,M,M,M,M,M,M
MDW,2001-01-12 01:53,-87.7524,41.7860,31.00,28.00,88.48,0.00,0.00,M,29.51,M,M,0.00,M,M,M,M,M,M,M,M,M,M
MDW,2001-01-12 02:53,-87.7524,41.7860,32.00,28.00,84.98,290.00,3.00,M,29.51,M,M,0.00,M,M,M,M,M,M,M,M,M,M
MDW,2001-01-12 03:53,-87.7524,41.7860,34.00,31.00,88.63,230.00,4.00,M,29.54,M,M,0.00,M,M,M,M,M,M,M,M,M,M
MDW,2001-01-12 04:53,-87.7524,41.7860,36.00,31.00,81.86,240.00,3.00,M,29.54,M,M,0.00,M,M,M,M,M,M,M,M,M,M
MDW,2001-01-12 05:39,-87.7524,41.7860,M,M,M,230.00,6.00,M,M,M,M,0.00,M,M,M,M,M,M,M,M,M,M
MDW,2001-01-12 05:53,-87.7524,41.7860,36.00,31.00,81.86,230.00,5.00,M,29.53,M,M,0.00,M,M,M,M,M,M,M,M,M,M
MDW,2001-01-12 05:59,-87.7524,41.7860,M,M,M,210.00,6.00,M,M,M,M,0.00,M,M,M,M,M,M,M,M,M,M
MDW,2001-01-12 06:53,-87.7524,41.7860,36.00,31.00,81.86,210.00,7.00,M,29.53,M,M,0.00,M,M,M,M,M,M,M,M,M,M
MDW,2001-01-12 07:53,-87.7524,41.7860,36.00,31.00,81.86,250.00,6.00,M,29.51,M,M,0.00,M,M,M,M,M,M,M,M,M,M
MDW,2001-01-12 08:53,-87.7524,41.7860,36.00,31.00,81.86,200.00,7.00,M,29.52,M,M,0.00,M,M,M,M,M,M,M,M,M,M
MDW,2001-01-12 09:53,-87.7524,41.7860,35.00,30.00,81.78,210.00,6.00,M,29.53,M,M,0.00,M,M,M,M,M,M,M,M,M,M
MDW,2001-01-12 10:53,-87.7524,41.7860,34.00,31.00,88.63,220.00,7.00,M,29.56,M,M,0.00,M,M,M,M,M,M,M,M,M,M
MDW,2001-01-12 11:53,-87.7524,41.7860,34.00,32.00,92.29,230.00,6.00,M,29.57,M,M,0.00,M,M,M,M,M,M,M,M,M,M
MDW,2001-01-12 12:53,-87.7524,41.7860,34.00,31.00,88.63,250.00,4.00,M,29.57,M,M,0.00,M,M,M,M,M,M,M,M,M,M
MDW,2001-01-12 13:53,-87.7524,41.7860,34.00,31.00,88.63,230.00,4.00,M,29.58,M,M,0.00,M,M,M,M,M,M,M,M,M,M
MDW,2001-01-12 14:22,-87.7524,41.7860,M,M,M,220.00,4.00,M,M,M,M,0.00,M,M,M,M,M,M,M,M,M,M
MDW,2001-01-12 14:53,-87.7524,41.7860,34.00,31.00,88.63,230.00,6.00,M,29.57,M,M,0.00,M,M,M,M,M,M,M,M,M,M
MDW,2001-01-12 15:53,-87.7524,41.7860,34.00,31.00,88.63,200.00,5.00,M,29.57,M,M,0.00,M,M,M,M,M,M,M,M,M,M
MDW,2001-01-12 16:41,-87.7524,41.7860,M,M,M,190.00,5.00,M,M,M,M,0.00,M,M,M,M,M,M,M,M,M,M
MDW,2001-01-12 16:53,-87.7524,41.7860,34.00,31.00,88.63,180.00,6.00,M,29.56,M,M,0.00,M,M,M,M,M,M,M,M,M,M
MDW,2001-01-12 17:36,-87.7524,41.7860,M,M,M,190.00,7.00,M,M,M,M,0.00,M,M,M,M,M,M,M,M,M,M
MDW,2001-01-12 17:53,-87.7524,41.7860,34.00,32.00,92.29,210.00,6.00,M,29.55,M,M,0.00,M,M,M,M,M,M,M,M,M,M
MDW,2001-01-12 18:53,-87.7524,41.7860,34.00,31.00,88.63,210.00,5.00,M,29.54,M,M,0.00,M,M,M,M,M,M,M,M,M,M
MDW,2001-01-12 19:17,-87.7524,41.7860,M,M,M,210.00,5.00,M,M,M,M,0.00,M,M,M,M,M,M,M,M,M,M
MDW,2001-01-12 19:53,-87.7524,41.7860,34.00,31.00,88.63,200.00,5.00,M,29.55,M,M,0.00,M,M,M,M,M,M,M,M,M,M
MDW,2001-01-12 20:53,-87.7524,41.7860,34.00,31.00,88.63,190.00,4.00,M,29.56,M,M,0.00,M,M,M,M,M,M,M,M,M,M
MDW,2001-01-12 20:54,-87.7524,41.7860,M,M,M,190.00,4.00,M,M,M,M,0.00,M,M,M,M,M,M,M,M,M,M
MDW,2001-01-12 20:55,-87.7524,41.7860,M,M,M,190.00,4.00,M,M,M,M,0.00,M,M,M,M,M,M,M,M,M,M
MDW,2001-01-12 21:53,-87.7524,41.7860,34.00,32.00,92.29,180.00,5.00,M,29.55,M,M,0.00,M,M,M,M,M,M,M,M,M,M
MDW,2001-01-12 22:53,-87.7524,41.7860,34.00,32.00,92.29,200.00,5.00,M,29.55,M,M,0.00,M,M,M,M,M,M,M,M,M,M
MDW,2001-01-12 23:53,-87.7524,41.7860,34.00,32.00,92.29,190.00,6.00,M,29.56,M,M,0.00,M,M,M,M,M,M,M,M,M,M
MDW,2001-01-13 00:53,-87.7524,41.7860,34.00,32.00,92.29,180.00,6.00,M,29.56,M,M,0.00,M,M,M,M,M,M,M,M,M,M
MDW,2001-01-13 01:53,-87.7524,41.7860,34.00,32.00,92.29,180.00,6.00,M,29.56,M,M,0.00,M,M,M,M,M,M,M,M,M,M
MDW,2001-01-13 02:53,-87.7524,41.7860,34.00,32.00,92.29,170.00,7.00,M,29.56,M,M,0.00,M,M,M,M,M,M,M,M,M,M
MDW,2001-01-13 03:53,-87.7524,41.7860,34.00,32.00,92.29,180.00,6.00,M,29.56,M,M,0.00,M,M,M,M,M,M,M,M,M,M
MDW,2001-01-13 04:00,-87.7524,41.7860,M,M,M,180.00,7.00,M,M,M,M,0.00,M,M,M,M,M,M,M,M,M,M
MDW,2001-01-13 04:53,-87.7524,41.7860,34.00,32.00,92.29,170.00,6.00,M,29.55,M,M,0.00,M,M,M,M,M,M,M,M,M,M
MDW,2001-01-13 05:53,-87.7524,41.7860,35.00,31.00,85.17,180.00,7.00,M,29.53,M,M,0.00,M,M,M,M,M,M,M,M,M,M
MDW,2001-01-13 06:53,-87.7524,41.7860,35.00,32.00,88.68,180.00,6.00,M,29.51,M,M,0.00,M,M,M,M,M,M,M,M,M,M
MDW,2001-01-13 07:20,-87.7524,41.7860,M,M,M,180.00,7.00,M,M,M,M,0.00,M,M,M,M,M,M,M,M,M,M
MDW,2001-01-13 07:53,-87.7524,41.7860,36.00,32.00,85.23,180.00,5.00,M,29.50,M,M,0.00,M,M,M,M,M,M,M,M,M,M
MDW,2001-01-13 08:24,-87.7524,41.7860,M,M,M,170.00,4.00,M,M,M,M,0.00,M,M,M,M,M,M,M,M,M,M
MDW,2001-01-13 08:53,-87.7524,41.7860,37.00,32.00,81.93,170.00,4.00,M,29.48,M,M,0.00,M,M,M,M,M,M,M,M,M,M
MDW,2001-01-13 09:53,-87.7524,41.7860,37.00,31.00,78.69,140.00,8.00,M,29.46,M,M,0.00,M,M,M,M,M,M,M,M,M,M
MDW,2001-01-13 10:53,-87.7524,41.7860,36.00,31.00,81.86,110.00,12.00,M,29.44,M,M,0.00,M,M,M,M,M,M,M,M,M,M
MDW,2001-01-13 11:53,-87.7524,41.7860,35.00,31.00,85.17,110.00,9.00,M,29.42,M,M,0.00,M,M,M,M,M,M,M,M,M,M
MDW,2001-01-13 12:53,-87.7524,41.7860,34.00,31.00,88.63,130.00,6.00,M,29.45,M,M,0.00,M,M,M,M,M,M,M,M,M,M
MDW,2001-01-13 13:53,-87.7524,41.7860,34.00,31.00,88.63,110.00,9.00,M,29.44,M,M,0.00,M,M,M,M,M,M,M,M,M,M
MDW,2001-01-13 14:53,-87.7524,41.7860,34.00,30.00,85.11,140.00,9.00,M,29.43,M,M,0.00,M,M,M,M,M,M,M,M,M,M
MDW,2001-01-13 15:53,-87.7524,41.7860,35.00,29.00,78.51,130.00,10.00,M,29.41,M,M,0.00,M,M,M,M,M,M,M,M,M,M
MDW,2001-01-13 16:53,-87.7524,41.7860,34.00,29.00,81.71,100.00,7.00,M,29.37,M,M,0.00,M,M,M,M,M,M,M,M,M,M
MDW,2001-01-13 17:53,-87.7524,41.7860,34.00,28.00,78.43,150.00,8.00,M,29.40,M,M,0.00,M,M,M,M,M,M,M,M,M,M
MDW,2001-01-13 18:53,-87.7524,41.7860,34.00,28.00,78.43,150.00,9.00,M,29.36,M,M,0.00,M,M,M,M,M,M,M,M,M,M
MDW,2001-01-13 19:28,-87.7524,41.7860,M,M,M,130.00,5.00,M,M,M,M,0.00,M,M,M,M,M,M,M,M,M,M
MDW,2001-01-13 19:53,-87.7524,41.7860,33.00,28.00,81.63,140.00,10.00,M,29.32,M,M,0.00,M,M,M,M,M,M,M,M,M,M
MDW,2001-01-13 20:07,-87.7524,41.7860,M,M,M,140.00,12.00,M,M,M,M,0.00,M,M,M,M,M,M,M,M,M,M
MDW,2001-01-13 20:27,-87.7524,41.7860,M,M,M,110.00,9.00,M,M,M,M,0.00,M,M,M,M,M,M,M,M,M,M
MDW,2001-01-13 20:53,-87.7524,41.7860,33.00,30.00,88.58,150.00,8.00,0.06,29.30,M,M,0.00,M,M,M,M,M,M,M,M,M,M
MDW,2001-01-13 21:53,-87.7524,41.7860,33.00,31.00,92.25,130.00,7.00,0.11,29.27,M,M,0.00,M,M,M,M,M,M,M,M,M,M
MDW,2001-01-13 22:53,-87.7524,41.7860,34.00,31.00,88.63,140.00,8.00,0.01,29.27,M,M,0.00,M,M,M,M,M,M,M,M,M,M
MDW,2001-01-13 23:04,-87.7524,41.7860,M,M,M,140.00,8.00,M,M,M,M,0.00,M,M,M,M,M,M,M,M,M,M
MDW,2001-01-13 23:53,-87.7524,41.7860,34.00,32.00,92.29,130.00,8.00,M,29.26,M,M,0.00,M,M,M,M,M,M,M,M,M,M
MDW,2001-01-14 00:53,-87.7524,41.7860,35.00,26.00,69.39,140.00,8.00,0.01,29.25,M,M,0.00,M,M,M,M,M,M,M,M,M,M
MDW,2001-01-14 01:53,-87.7524,41.7860,36.00,29.00,75.46,140.00,8.00,0.02,29.25,M,M,0.00,M,M,M,M,M,M,M,M,M,M
MDW,2001-01-14 02:53,-87.7524,41.7860,37.00,31.00,78.69,160.00,9.00,0.01,29.24,M,M,0.00,M,M,M,M,M,M,M,M,M,M
MDW,2001-01-14 03:16,-87.7524,41.7860,M,M,M,0.00,6.00,M,M,M,M,0.00,M,M,M,M,M,M,M,M,M,M
MDW,2001-01-14 03:53,-87.7524,41.7860,37.00,30.00,75.56,170.00,9.00,M,29.24,M,M,0.00,M,M,M,M,M,M,M,M,M,M
MDW,2001-01-14 04:53,-87.7524,41.7860,37.00,32.00,81.93,180.00,8.00,M,29.23,M,M,0.00,M,M,M,M,M,M,M,M,M,M
MDW,2001-01-14 04:54,-87.7524,41.7860,M,M,M,180.00,8.00,M,M,M,M,0.00,M,M,M,M,M,M,M,M,M,M
MDW,2001-01-14 05:53,-87.7524,41.7860,37.00,31.00,78.69,190.00,8.00,M,29.22,M,M,0.00,M,M,M,M,M,M,M,M,M,M
MDW,2001-01-14 06:53,-87.7524,41.7860,38.00,36.00,92.42,170.00,8.00,M,29.20,M,M,0.00,M,M,M,M,M,M,M,M,M,M
MDW,2001-01-14 07:11,-87.7524,41.7860,M,M,M,180.00,10.00,M,M,M,M,0.00,M,M,M,M,M,M,M,M,M,M
MDW,2001-01-14 07:20,-87.7524,41.7860,M,M,M,170.00,10.00,M,M,M,M,0.00,M,M,M,M,M,M,M,M,M,M
MDW,2001-01-14 07:53,-87.7524,41.7860,38.00,36.00,92.42,170.00,10.00,0.01,29.18,M,M,0.00,M,M,M,M,M,M,M,M,M,M
MDW,2001-01-14 08:53,-87.7524,41.7860,37.00,36.00,96.13,170.00,10.00,M,29.18,M,M,0.00,M,M,M,M,M,M,M,M,M,M
MDW,2001-01-14 08:54,-87.7524,41.7860,M,M,M,170.00,10.00,M,M,M,M,0.00,M,M,M,M,M,M,M,M,M,M
MDW,2001-01-14 09:06,-87.7524,41.7860,M,M,M,180.00,8.00,M,M,M,M,0.00,M,M,M,M,M,M,M,M,M,M
MDW,2001-01-14 09:14,-87.7524,41.7860,M,M,M,180.00,10.00,M,M,M,M,0.00,M,M,M,M,M,M,M,M,M,M
MDW,2001-01-14 09:53,-87.7524,41.7860,37.00,35.00,92.39,180.00,8.00,M,29.19,M,M,0.00,M,M,M,M,M,M,M,M,M,M
MDW,2001-01-14 10:53,-87.7524,41.7860,37.00,35.00,92.39,180.00,9.00,M,29.19,M,M,0.00,M,M,M,M,M,M,M,M,M,M
MDW,2001-01-14 11:53,-87.7524,41.7860,37.00,35.00,92.39,180.00,8.00,M,29.19,M,M,0.00,M,M,M,M,M,M,M,M,M,M
MDW,2001-01-14 12:34,-87.7524,41.7860,M,M,M,190.00,8.00,M,M,M,M,0.00,M,M,M,M,M,M,M,M,M,M
MDW,2001-01-14 12:53,-87.7524,41.7860,37.00,35.00,92.39,180.00,9.00,M,29.20,M,M,0.00,M,M,M,M,M,M,M,M,M,M
MDW,2001-01-14 13:27,-87.7524,41.7860,M,M,M,190.00,8.00,M,M,M,M,0.00,M,M,M,M,M,M,M,M,M,M
MDW,2001-01-14 13:53,-87.7524,41.7860,37.00,35.00,92.39,190.00,8.00,M,29.20,M,M,0.00,M,M,M,M,M,M,M,M,M,M
MDW,2001-01-14 14:53,-87.7524,41.7860,36.00,35.00,96.11,200.00,9.00,M,29.19,M,M,0.00,M,M,M,M,M,M,M,M,M,M
MDW,2001-01-14 15:00,-87.7524,41.7860,M,M,M,200.00,10.00,M,M,M,M,0.00,M,M,M,M,M,M,M,M,M,M
MDW,2001-01-14 15:43,-87.7524,41.7860,M,M,M,200.00,8.00,M,M,M,M,0.00,M,M,M,M,M,M,M,M,M,M
MDW,2001-01-14 15:53,-87.7524,41.7860,36.00,35.00,96.11,200.00,8.00,M,29.19,M,M,0.00,M,M,M,M,M,M,M,M,M,M
MDW,2001-01-14 16:18,-87.7524,41.7860,M,M,M,220.00,6.00,M,M,M,M,0.00,M,M,M,M,M,M,M,M,M,M
MDW,2001-01-14 16:53,-87.7524,41.7860,36.00,34.00,92.35,210.00,7.00,M,29.19,M,M,0.00,M,M,M,M,M,M,M,M,M,M
MDW,2001-01-14 16:54,-87.7524,41.7860,M,M,M,220.00,6.00,M,M,M,M,0.00,M,M,M,M,M,M,M,M,M,M
MDW,2001-01-14 17:08,-87.7524,41.7860,M,M,M,220.00,7.00,M,M,M,M,0.00,M,M,M,M,M,M,M,M,M,M
MDW,2001-01-14 17:36,-87.7524,41.7860,M,M,M,240.00,9.00,M,M,M,M,0.00,M,M,M,M,M,M,M,M,M,M
MDW,2001-01-14 17:53,-87.7524,41.7860,36.00,36.00,100.00,230.00,10.00,M,29.19,M,M,0.00,M,M,M,M,M,M,M,M,M,M
MDW,2001-01-14 18:53,-87.7524,41.7860,35.00,34.00,96.09,230.00,9.00,M,29.20,M,M,0.00,M,M,M,M,M,M,M,M,M,M
MDW,2001-01-14 19:53,-87.7524,41.7860,35.00,34.00,96.09,230.00,8.00,M,29.20,M,M,0.00,M,M,M,M,M,M,M,M,M,M
MDW,2001-01-14 20:53,-87.7524,41.7860,35.00,34.00,96.09,230.00,9.00,0.01,29.21,M,M,0.00,M,M,M,M,M,M,M,M,M,M
MDW,2001-01-14 21:53,-87.7524,41.7860,34.00,33.00,96.08,240.00,7.00,M,29.21,M,M,0.00,M,M,M,M,M,M,M,M,M,M
MDW,2001-01-14 22:53,-87.7524,41.7860,34.00,32.00,92.29,250.00,9.00,M,29.21,M,M,0.00,M,M,M,M,M,M,M,M,M,M
MDW,2001-01-14 23:53,-87.7524,41.7860,34.00,34.00,100.00,250.00,10.00,M,29.21,M,M,0.00,M,M,M,M,M,M,M,M,M,M
MDW,2001-01-15 00:53,-87.7524,41.7860,34.00,33.00,96.08,240.00,10.00,M,29.23,M,M,0.00,M,M,M,M,M,M,M,M,M,M
MDW,2001-01-15 01:19,-87.7524,41.7860,M,M,M,250.00,8.00,M,M,M,M,0.00,M,M,M,M,M,M,M,M,M,M
MDW,2001-01-15 01:53,-87.7524,41.7860,34.00,34.00,100.00,260.00,11.00,M,29.24,M,M,0.00,M,M,M,M,M,M,M,M,M,M
MDW,2001-01-15 01:54,-87.7524,41.7860,M,M,M,260.00,11.00,M,M,M,M,0.00,M,M,M,M,M,M,M,M,M,M
MDW,2001-01-15 02:53,-87.7524,41.7860,34.00,34.00,100.00,250.00,11.00,M,29.24,M,M,0.00,M,M,M,M,M,M,M,M,M,M
MDW,2001-01-15 02:54,-87.7524,41.7860,M,M,M,250.00,13.00,M,M,M,M,0.00,M,M,M,M,M,M,M,M,M,M
MDW,2001-01-15 03:53,-87.7524,41.7860,34.00,33.00,96.08,250.00,14.00,M,29.26,M,M,0.00,M,M,M,M,M,M,M,M,M,M
MDW,2001-01-15 04:22,-87.7524,41.7860,M,M,M,260.00,13.00,M,M,M,M,0.00,M,M,M,M,M,M,M,M,M,M
MDW,2001-01-15 04:28,-87.7524,41.7860,M,M,M,260.00,11.00,M,M,M,M,18.00,M,M,M,M,M,M,M,M,M,M
MDW,2001-01-15 04:53,-87.7524,41.7860,35.00,32.00,88.68,260.00,12.00,M,29.27,M,M,0.00,M,M,M,M,M,M,M,M,M,M
MDW,2001-01-15 04:56,-87.7524,41.7860,M,M,M,260.00,11.00,M,M,M,M,0.00,M,M,M,M,M,M,M,M,M,M
MDW,2001-01-15 05:53,-87.7524,41.7860,35.00,32.00,88.68,260.00,11.00,M,29.26,M,M,0.00,M,M,M,M,M,M,M,M,M,M
MDW,2001-01-15 06:53,-87.7524,41.7860,35.00,31.00,85.17,250.00,14.00,M,29.26,M,M,0.00,M,M,M,M,M,M,M,M,M,M
MDW,2001-01-15 07:16,-87.7524,41.7860,M,M,M,260.00,12.00,M,M,M,M,0.00,M,M,M,M,M,M,M,M,M,M
MDW,2001-01-15 07:53,-87.7524,41.7860,35.00,32.00,88.68,260.00,14.00,M,29.26,M,M,0.00,M,M,M,M,M,M,M,M,M,M
MDW,2001-01-15 08:53,-87.7524,41.7860,35.00,31.00,85.17,250.00,15.00,M,29.28,M,M,0.00,M,M,M,M,M,M,M,M,M,M
MDW,2001-01-15 09:53,-87.7524,41.7860,35.00,31.00,85.17,250.00,12.00,M,29.28,M,M,0.00,M,M,M,M,M,M,M,M,M,M
MDW,2001-01-15 10:02,-87.7524,41.7860,M,M,M,250.00,12.00,M,M,M,M,0.00,M,M,M,M,M,M,M,M,M,M
MDW,2001-01-15 10:53,-87.7524,41.7860,34.00,32.00,92.29,260.00,14.00,M,29.31,M,M,19.00,M,M,M,M,M,M,M,M,M,M
MDW,2001-01-15 10:54,-87.7524,41.7860,M,M,M,260.00,15.00,M,M,M,M,19.00,M,M,M,M,M,M,M,M,M,M
MDW,2001-01-15 11:53,-87.7524,41.7860,34.00,31.00,88.63,260.00,16.00,M,29.32,M,M,0.00,M,M,M,M,M,M,M,M,M,M
MDW,2001-01-15 12:53,-87.7524,41.7860,34.00,31.00,88.63,250.00,13.00,M,29.34,M,M,18.00,M,M,M,M,M,M,M,M,M,M
MDW,2001-01-15 13:53,-87.7524,41.7860,34.00,30.00,85.11,250.00,11.00,M,29.35,M,M,21.00,M,M,M,M,M,M,M,M,M,M
MDW,2001-01-15 14:53,-87.7524,41.7860,34.00,29.00,81.71,260.00,16.00,M,29.37,M,M,20.00,M,M,M,M,M,M,M,M,M,M
MDW,2001-01-15 15:26,-87.7524,41.7860,M,M,M,270.00,16.00,M,M,M,M,19.00,M,M,M,M,M,M,M,M,M,M
MDW,2001-01-15 15:53,-87.7524,41.7860,33.00,28.00,81.63,270.00,13.00,M,29.37,M,M,20.00,M,M,M,M,M,M,M,M,M,M
MDW,2001-01-15 16:53,-87.7524,41.7860,33.00,28.00,81.63,280.00,16.00,M,29.39,M,M,23.00,M,M,M,M,M,M,M,M,M,M
MDW,2001-01-15 17:08,-87.7524,41.7860,M,M,M,280.00,10.00,M,M,M,M,18.00,M,M,M,M,M,M,M,M,M,M
MDW,2001-01-15 17:53,-87.7524,41.7860,32.00,27.00,81.55,280.00,12.00,M,29.39,M,M,19.00,M,M,M,M,M,M,M,M,M,M
MDW,2001-01-15 18:53,-87.7524,41.7860,32.00,27.00,81.55,280.00,13.00,M,29.39,M,M,0.00,M,M,M,M,M,M,M,M,M,M
MDW,2001-01-15 19:53,-87.7524,41.7860,32.00,28.00,84.98,290.00,8.00,M,29.42,M,M,0.00,M,M,M,M,M,M,M,M,M,M
MDW,2001-01-15 20:53,-87.7524,41.7860,31.00,26.00,81.48,280.00,10.00,M,29.43,M,M,0.00,M,M,M,M,M,M,M,M,M,M
MDW,2001-01-15 21:11,-87.7524,41.7860,M,M,M,270.00,12.00,M,M,M,M,0.00,M,M,M,M,M,M,M,M,M,M
MDW,2001-01-15 21:53,-87.7524,41.7860,31.00,26.00,81.48,280.00,9.00,M,29.45,M,M,0.00,M,M,M,M,M,M,M,M,M,M
MDW,2001-01-15 22:18,-87.7524,41.7860,M,M,M,280.00,9.00,M,M,M,M,0.00,M,M,M,M,M,M,M,M,M,M
MDW,2001-01-15 22:53,-87.7524,41.7860,30.00,26.00,84.85,260.00,10.00,M,29.46,M,M,0.00,M,M,M,M,M,M,M,M,M,M
MDW,2001-01-15 23:53,-87.7524,41.7860,30.00,27.00,88.44,270.00,10.00,M,29.48,M,M,0.00,M,M,M,M,M,M,M,M,M,M
MDW,2001-01-16 00:53,-87.7524,41.7860,30.00,27.00,88.44,280.00,9.00,M,29.50,M,M,0.00,M,M,M,M,M,M,M,M,M,M
MDW,2001-01-16 01:53,-87.7524,41.7860,30.00,26.00,84.85,280.00,9.00,M,29.51,M,M,0.00,M,M,M,M,M,M,M,M,M,M
MDW,2001-01-16 02:42,-87.7524,41.7860,M,M,M,250.00,7.00,M,M,M,M,0.00,M,M,M,M,M,M,M,M,M,M
MDW,2001-01-16 02:53,-87.7524,41.7860,30.00,27.00,88.44,260.00,7.00,M,29.51,M,M,0.00,M,M,M,M,M,M,M,M,M,M
MDW,2001-01-16 03:53,-87.7524,41.7860,30.00,27.00,88.44,250.00,8.00,M,29.54,M,M,0.00,M,M,M,M,M,M,M,M,M,M
MDW,2001-01-16 04:11,-87.7524,41.7860,M,M,M,260.00,9.00,M,M,M,M,0.00,M,M,M,M,M,M,M,M,M,M
MDW,2001-01-16 04:53,-87.7524,41.7860,30.00,26.00,84.85,270.00,7.00,M,29.55,M,M,0.00,M,M,M,M,M,M,M,M,M,M
MDW,2001-01-16 05:53,-87.7524,41.7860,30.00,27.00,88.44,280.00,7.00,M,29.54,M,M,0.00,M,M,M,M,M,M,M,M,M,M
MDW,2001-01-16 06:53,-87.7524,41.7860,30.00,26.00,84.85,280.00,10.00,M,29.54,M,M,0.00,M,M,M,M,M,M,M,M,M,M
MDW,2001-01-16 07:53,-87.7524,41.7860,30.00,25.00,81.40,260.00,9.00,M,29.52,M,M,0.00,M,M,M,M,M,M,M,M,M,M
MDW,2001-01-16 08:23,-87.7524,41.7860,M,M,M,260.00,8.00,M,M,M,M,0.00,M,M,M,M,M,M,M,M,M,M
MDW,2001-01-16 08:53,-87.7524,41.7860,30.00,26.00,84.85,250.00,7.00,M,29.54,M,M,0.00,M,M,M,M,M,M,M,M,M,M
MDW,2001-01-16 09:13,-87.7524,41.7860,M,M,M,250.00,7.00,M,M,M,M,0.00,M,M,M,M,M,M,M,M,M,M
MDW,2001-01-16 09:20,-87.7524,41.7860,M,M,M,250.00,7.00,M,M,M,M,0.00,M,M,M,M,M,M,M,M,M,M
MDW,2001-01-16 09:53,-87.7524,41.7860,29.00,25.00,84.79,240.00,10.00,M,29.56,M,M,0.00,M,M,M,M,M,M,M,M,M,M
MDW,2001-01-16 10:53,-87.7524,41.7860,28.00,25.00,88.33,260.00,11.00,M,29.56,M,M,0.00,M,M,M,M,M,M,M,M,M,M
MDW,2001-01-16 11:53,-87.7524,41.7860,28.00,24.00,84.72,270.00,12.00,M,29.60,M,M,0.00,M,M,M,M,M,M,M,M,M,M
MDW,2001-01-16 12:53,-87.7524,41.7860,28.00,23.00,81.25,280.00,7.00,M,29.60,M,M,0.00,M,M,M,M,M,M,M,M,M,M
MDW,2001-01-16 12:54,-87.7524,41.7860,M,M,M,280.00,7.00,M,M,M,M,0.00,M,M,M,M,M,M,M,M,M,M
MDW,2001-01-16 13:28,-87.7524,41.7860,M,M,M,280.00,7.00,M,M,M,M,0.00,M,M,M,M,M,M,M,M,M,M
MDW,2001-01-16 13:53,-87.7524,41.7860,28.00,25.00,88.33,270.00,6.00,M,29.60,M,M,0.00,M,M,M,M,M,M,M,M,M,M
MDW,2001-01-16 14:45,-87.7524,41.7860,M,M,M,280.00,7.00,M,M,M,M,0.00,M,M,M,M,M,M,M,M,M,M
MDW,2001-01-16 14:53,-87.7524,41.7860,27.00,22.00,81.17,270.00,7.00,M,29.60,M,M,0.00,M,M,M,M,M,M,M,M,M,M
MDW,2001-01-16 15:53,-87.7524,41.7860,27.00,21.00,77.80,280.00,6.00,M,29.60,M,M,0.00,M,M,M,M,M,M,M,M,M,M
MDW,2001-01-16 16:53,-87.7524,41.7860,27.00,21.00,77.80,260.00,7.00,M,29.61,M,M,0.00,M,M,M,M,M,M,M,M,M,M
MDW,2001-01-16 17:53,-87.7524,41.7860,27.00,22.00,81.17,260.00,8.00,M,29.60,M,M,0.00,M,M,M,M,M,M,M,M,M,M
MDW,2001-01-16 18:53,-87.7524,41.7860,25.00,23.00,91.97,250.00,7.00,M,29.60,M,M,0.00,M,M,M,M,M,M,M,M,M,M
MDW,2001-01-16 19:53,-87.7524,41.7860,25.00,22.00,88.18,260.00,7.00,M,29.61,M,M,0.00,M,M,M,M,M,M,M,M,M,M
MDW,2001-01-16 20:53,-87.7524,41.7860,24.00,20.00,84.46,260.00,10.00,M,29.62,M,M,0.00,M,M,M,M,M,M,M,M,M,M
MDW,2001-01-16 20:59,-87.7524,41.7860,M,M,M,250.00,9.00,M,M,M,M,0.00,M,M,M,M,M,M,M,M,M,M
MDW,2001-01-16 21:01,-87.7524,41.7860,M,M,M,250.00,9.00,M,M,M,M,0.00,M,M,M,M,M,M,M,M,M,M
MDW,2001-01-16 21:41,-87.7524,41.7860,M,M,M,260.00,7.00,M,M,M,M,0.00,M,M,M,M,M,M,M,M,M,M
MDW,2001-01-16 21:53,-87.7524,41.7860,24.00,19.00,80.93,270.00,7.00,M,29.62,M,M,0.00,M,M,M,M,M,M,M,M,M,M
MDW,2001-01-16 22:53,-87.7524,41.7860,24.00,19.00,80.93,260.00,6.00,M,29.60,M,M,0.00,M,M,M,M,M,M,M,M,M,M
MDW,2001-01-16 23:53,-87.7524,41.7860,24.00,21.00,88.13,260.00,6.00,M,29.61,M,M,0.00,M,M,M,M,M,M,M,M,M,M
MDW,2001-01-17 00:53,-87.7524,41.7860,24.00,20.00,84.46,240.00,7.00,M,29.62,M,M,0.00,M,M,M,M,M,M,M,M,M,M
MDW,2001-01-17 01:53,-87.7524,41.7860,24.00,21.00,88.13,250.00,7.00,M,29.64,M,M,0.00,M,M,M,M,M,M,M,M,M,M
MDW,2001-01-17 02:53,-87.7524,41.7860,25.00,20.00,81.01,260.00,5.00,M,29.63,M,M,0.00,M,M,M,M,M,M,M,M,M,M
MDW,2001-01-17 03:53,-87.7524,41.7860,25.00,21.00,84.53,250.00,8.00,M,29.63,M,M,0.00,M,M,M,M,M,M,M,M,M,M
MDW,2001-01-17 04:53,-87.7524,41.7860,26.00,21.00,81.09,240.00,7.00,M,29.63,M,M,0.00,M,M,M,M,M,M,M,M,M,M
MDW,2001-01-17 05:53,-87.7524,41.7860,26.00,21.00,81.09,260.00,9.00,M,29.60,M,M,0.00,M,M,M,M,M,M,M,M,M,M
MDW,2001-01-17 06:07,-87.7524,41.7860,M,M,M,220.00,6.00,M,M,M,M,0.00,M,M,M,M,M,M,M,M,M,M
MDW,2001-01-17 06:40,-87.7524,41.7860,M,M,M,230.00,7.00,M,M,M,M,0.00,M,M,M,M,M,M,M,M,M,M
MDW,2001-01-17 06:53,-87.7524,41.7860,27.00,21.00,77.80,240.00,10.00,M,29.57,M,M,0.00,M,M,M,M,M,M,M,M,M,M
MDW,2001-01-17 06:58,-87.7524,41.7860,M,M,M,230.00,8.00,M,M,M,M,0.00,M,M,M,M,M,M,M,M,M,M
MDW,2001-01-17 07:37,-87.7524,41.7860,M,M,M,270.00,11.00,M,M,M,M,0.00,M,M,M,M,M,M,M,M,M,M
MDW,2001-01-17 07:53,-87.7524,41.7860,26.00,21.00,81.09,240.00,7.00,M,29.56,M,M,0.00,M,M,M,M,M,M,M,M,M,M
MDW,2001-01-17 08:53,-87.7524,41.7860,26.00,21.00,81.09,220.00,5.00,M,29.54,M,M,0.00,M,M,M,M,M,M,M,M,M,M
MDW,2001-01-17 09:53,-87.7524,41.7860,26.00,20.00,77.71,240.00,6.00,M,29.54,M,M,0.00,M,M,M,M,M,M,M,M,M,M
MDW,2001-01-17 10:53,-87.7524,41.7860,25.00,20.00,81.01,220.00,7.00,M,29.54,M,M,0.00,M,M,M,M,M,M,M,M,M,M
MDW,2001-01-17 11:53,-87.7524,41.7860,24.00,18.00,77.53,240.00,7.00,M,29.55,M,M,0.00,M,M,M,M,M,M,M,M,M,M
MDW,2001-01-17 12:53,-87.7524,41.7860,23.00,18.00,80.85,230.00,6.00,M,29.55,M,M,0.00,M,M,M,M,M,M,M,M,M,M
MDW,2001-01-17 13:53,-87.7524,41.7860,22.00,19.00,88.02,230.00,8.00,M,29.54,M,M,0.00,M,M,M,M,M,M,M,M,M,M
MDW,2001-01-17 14:53,-87.7524,41.7860,22.00,20.00,91.87,240.00,6.00,M,29.52,M,M,0.00,M,M,M,M,M,M,M,M,M,M
MDW,2001-01-17 15:53,-87.7524,41.7860,22.00,19.00,88.02,230.00,5.00,M,29.51,M,M,0.00,M,M,M,M,M,M,M,M,M,M
MDW,2001-01-17 16:53,-87.7524,41.7860,21.00,18.00,87.97,210.00,7.00,M,29.50,M,M,0.00,M,M,M,M,M,M,M,M,M,M
MDW,2001-01-17 17:29,-87.7524,41.7860,M,M,M,210.00,8.00,M,M,M,M,0.00,M,M,M,M,M,M,M,M,M,M
MDW,2001-01-17 17:53,-87.7524,41.7860,21.00,19.00,91.83,200.00,11.00,M,29.49,M,M,0.00,M,M,M,M,M,M,M,M,M,M
MDW,2001-01-17 18:13,-87.7524,41.7860,M,M,M,210.00,9.00,M,M,M,M,0.00,M,M,M,M,M,M,M,M,M,M
MDW,2001-01-17 18:53,-87.7524,41.7860,21.00,18.00,87.97,200.00,9.00,M,29.47,M,M,0.00,M,M,M,M,M,M,M,M,M,M
MDW,2001-01-17 19:39,-87.7524,41.7860,M,M,M,210.00,8.00,M,M,M,M,0.00,M,M,M,M,M,M,M,M,M,M
MDW,2001-01-17 19:53,-87.7524,41.7860,20.00,18.00,91.79,210.00,8.00,M,29.45,M,M,0.00,M,M,M,M,M,M,M,M,M,M
MDW,2001-01-17 20:53,-87.7524,41.7860,20.00,17.00,87.92,220.00,7.00,M,29.45,M,M,0.00,M,M,M,M,M,M,M,M,M,M
MDW,2001-01-17 21:53,-87.7524,41.7860,20.00,18.00,91.79,210.00,7.00,M,29.43,M,M,0.00,M,M,M,M,M,M,M,M,M,M
MDW,2001-01-17 22:53,-87.7524,41.7860,21.00,19.00,91.83,190.00,8.00,M,29.41,M,M,0.00,M,M,M,M,M,M,M,M,M,M
MDW,2001-01-17 23:53,-87.7524,41.7860,21.00,18.00,87.97,190.00,10.00,M,29.40,M,M,0.00,M,M,M,M,M,M,M,M,M,M
MDW,2001-01-17 23:54,-87.7524,41.7860,M,M,M,180.00,10.00,M,M,M,M,0.00,M,M,M,M,M,M,M,M,M,M
MDW,2001-01-18 00:37,-87.7524,41.7860,M,M,M,200.00,9.00,M,M,M,M,0.00,M,M,M,M,M,M,M,M,M,M
MDW,2001-01-18 00:53,-87.7524,41.7860,20.00,18.00,91.79,200.00,12.00,M,29.40,M,M,0.00,M,M,M,M,M,M,M,M,M,M
MDW,2001-01-18 01:21,-87.7524,41.7860,M,M,M,200.00,9.00,M,M,M,M,0.00,M,M,M,M,M,M,M,M,M,M
MDW,2001-01-18 01:53,-87.7524,41.7860,20.00,18.00,91.79,210.00,8.00,M,29.39,M,M,0.00,M,M,M,M,M,M,M,M,M,M
MDW,2001-01-18 02:53,-87.7524,41.7860,20.00,18.00,91.79,200.00,9.00,M,29.39,M,M,0.00,M,M,M,M,M,M,M,M,M,M
MDW,2001-01-18 03:39,-87.7524,41.7860,M,M,M,210.00,10.00,M,M,M,M,0.00,M,M,M,M,M,M,M,M,M,M
MDW,2001-01-18 03:53,-87.7524,41.7860,22.00,20.00,91.87,200.00,10.00,M,29.38,M,M,0.00,M,M,M,M,M,M,M,M,M,M
MDW,2001-01-18 04:53,-87.7524,41.7860,26.00,20.00,77.71,220.00,12.00,M,29.37,M,M,16.00,M,M,M,M,M,M,M,M,M,M
MDW,2001-01-18 05:53,-87.7524,41.7860,28.00,23.00,81.25,210.00,11.00,M,29.33,M,M,14.00,M,M,M,M,M,M,M,M,M,M
MDW,2001-01-18 06:53,-87.7524,41.7860,30.00,23.00,74.87,220.00,9.00,M,29.31,M,M,0.00,M,M,M,M,M,M,M,M,M,M
MDW,2001-01-18 07:53,-87.7524,41.7860,31.00,24.00,74.97,200.00,10.00,M,29.29,M,M,0.00,M,M,M,M,M,M,M,M,M,M
MDW,2001-01-18 08:53,-87.7524,41.7860,32.00,24.00,72.00,210.00,9.00,M,29.28,M,M,17.00,M,M,M,M,M,M,M,M,M,M
MDW,2001-01-18 09:53,-87.7524,41.7860,32.00,24.00,72.00,210.00,10.00,M,29.27,M,M,0.00,M,M,M,M,M,M,M,M,M,M
MDW,2001-01-18 10:53,-87.7524,41.7860,31.00,24.00,74.97,210.00,9.00,M,29.29,M,M,0.00,M,M,M,M,M,M,M,M,M,M
MDW,2001-01-18 11:53,-87.7524,41.7860,29.00,25.00,84.79,240.00,5.00,M,29.30,M,M,0.00,M,M,M,M,M,M,M,M,M,M
MDW,2001-01-18 12:31,-87.7524,41.7860,M,M,M,220.00,6.00,M,M,M,M,0.00,M,M,M,M,M,M,M,M,M,M
MDW,2001-01-18 12:53,-87.7524,41.7860,30.00,25.00,81.40,230.00,6.00,M,29.30,M,M,0.00,M,M,M,M,M,M,M,M,M,M
MDW,2001-01-18 13:11,-87.7524,41.7860,M,M,M,250.00,7.00,M,M,M,M,0.00,M,M,M,M,M,M,M,M,M,M
MDW,2001-01-18 13:53,-87.7524,41.7860,27.00,24.00,88.28,260.00,5.00,M,29.30,M,M,0.00,M,M,M,M,M,M,M,M,M,M
MDW,2001-01-18 14:53,-87.7524,41.7860,28.00,24.00,84.72,260.00,5.00,M,29.30,M,M,0.00,M,M,M,M,M,M,M,M,M,M
MDW,2001-01-18 15:53,-87.7524,41.7860,28.00,24.00,84.72,280.00,6.00,M,29.32,M,M,0.00,M,M,M,M,M,M,M,M,M,M
MDW,2001-01-18 16:53,-87.7524,41.7860,28.00,22.00,77.89,320.00,6.00,M,29.31,M,M,0.00,M,M,M,M,M,M,M,M,M,M
MDW,2001-01-18 17:53,-87.7524,41.7860,28.00,21.00,74.67,320.00,6.00,M,29.31,M,M,0.00,M,M,M,M,M,M,M,M,M,M
MDW,2001-01-18 18:53,-87.7524,41.7860,26.00,20.00,77.71,310.00,3.00,M,29.29,M,M,0.00,M,M,M,M,M,M,M,M,M,M
MDW,2001-01-18 19:53,-87.7524,41.7860,25.00,22.00,88.18,310.00,4.00,M,29.31,M,M,0.00,M,M,M,M,M,M,M,M,M,M
MDW,2001-01-18 20:53,-87.7524,41.7860,28.00,21.00,74.67,340.00,4.00,M,29.33,M,M,0.00,M,M,M,M,M,M,M,M,M,M
MDW,2001-01-18 21:53,-87.7524,41.7860,28.00,23.00,81.25,360.00,7.00,M,29.34,M,M,0.00,M,M,M,M,M,M,M,M,M,M
MDW,2001-01-18 22:17,-87.7524,41.7860,M,M,M,360.00,8.00,M,M,M,M,0.00,M,M,M,M,M,M,M,M,M,M
MDW,2001-01-18 22:53,-87.7524,41.7860,28.00,22.00,77.89,350.00,9.00,M,29.35,M,M,0.00,M,M,M,M,M,M,M,M,M,M
MDW,2001-01-18 23:38,-87.7524,41.7860,M,M,M,350.00,10.00,M,M,M,M,0.00,M,M,M,M,M,M,M,M,M,M
MDW,2001-01-18 23:53,-87.7524,41.7860,28.00,23.00,81.25,350.00,10.00,M,29.36,M,M,0.00,M,M,M,M,M,M,M,M,M,M
MDW,2001-01-19 00:53,-87.7524,41.7860,27.00,22.00,81.17,350.00,9.00,M,29.38,M,M,0.00,M,M,M,M,M,M,M,M,M,M
MDW,2001-01-19 01:53,-87.7524,41.7860,27.00,22.00,81.17,350.00,10.00,M,29.40,M,M,0.00,M,M,M,M,M,M,M,M,M,M
MDW,2001-01-19 02:53,-87.7524,41.7860,28.00,23.00,81.25,350.00,10.00,M,29.43,M,M,0.00,M,M,M,M,M,M,M,M,M,M
MDW,2001-01-19 03:21,-87.7524,41.7860,M,M,M,340.00,10.00,M,M,M,M,0.00,M,M,M,M,M,M,M,M,M,M
MDW,2001-01-19 03:53,-87.7524,41.7860,28.00,25.00,88.33,350.00,11.00,M,29.43,M,M,0.00,M,M,M,M,M,M,M,M,M,M
MDW,2001-01-19 04:08,-87.7524,41.7860,M,M,M,360.00,12.00,M,M,M,M,19.00,M,M,M,M,M,M,M,M,M,M
MDW,2001-01-19 04:53,-87.7524,41.7860,29.00,23.00,77.98,20.00,16.00,M,29.44,M,M,25.00,M,M,M,M,M,M,M,M,M,M
MDW,2001-01-19 05:53,-87.7524,41.7860,28.00,21.00,74.67,360.00,16.00,M,29.45,M,M,22.00,M,M,M,M,M,M,M,M,M,M
MDW,2001-01-19 06:53,-87.7524,41.7860,27.00,22.00,81.17,10.00,15.00,M,29.46,M,M,21.00,M,M,M,M,M,M,M,M,M,M
MDW,2001-01-19 07:53,-87.7524,41.7860,25.00,20.00,81.01,360.00,16.00,M,29.47,M,M,0.00,M,M,M,M,M,M,M,M,M,M
MDW,2001-01-19 08:19,-87.7524,41.7860,M,M,M,360.00,15.00,M,M,M,M,0.00,M,M,M,M,M,M,M,M,M,M
MDW,2001-01-19 08:53,-87.7524,41.7860,25.00,18.00,74.36,10.00,13.00,M,29.48,M,M,0.00,M,M,M,M,M,M,M,M,M,M
MDW,2001-01-19 09:40,-87.7524,41.7860,M,M,M,340.00,12.00,M,M,M,M,0.00,M,M,M,M,M,M,M,M,M,M
MDW,2001-01-19 09:53,-87.7524,41.7860,25.00,18.00,74.36,360.00,13.00,M,29.49,M,M,0.00,M,M,M,M,M,M,M,M,M,M
MDW,2001-01-19 09:56,-87.7524,41.7860,M,M,M,360.00,13.00,M,M,M,M,0.00,M,M,M,M,M,M,M,M,M,M
MDW,2001-01-19 10:53,-87.7524,41.7860,24.00,16.00,71.11,360.00,11.00,M,29.50,M,M,0.00,M,M,M,M,M,M,M,M,M,M
MDW,2001-01-19 11:53,-87.7524,41.7860,24.00,17.00,74.26,350.00,13.00,M,29.52,M,M,0.00,M,M,M,M,M,M,M,M,M,M
MDW,2001-01-19 12:53,-87.7524,41.7860,24.00,17.00,74.26,350.00,10.00,M,29.54,M,M,0.00,M,M,M,M,M,M,M,M,M,M
MDW,2001-01-19 13:53,-87.7524,41.7860,23.00,15.00,70.99,350.00,13.00,M,29.54,M,M,0.00,M,M,M,M,M,M,M,M,M,M
MDW,2001-01-19 14:53,-87.7524,41.7860,22.00,15.00,74.05,340.00,11.00,M,29.54,M,M,0.00,M,M,M,M,M,M,M,M,M,M
MDW,2001-01-19 15:53,-87.7524,41.7860,21.00,15.00,77.25,350.00,11.00,M,29.54,M,M,0.00,M,M,M,M,M,M,M,M,M,M
MDW,2001-01-19 16:53,-87.7524,41.7860,20.00,15.00,80.60,340.00,12.00,M,29.55,M,M,0.00,M,M,M,M,M,M,M,M,M,M
MDW,2001-01-19 17:53,-87.7524,41.7860,20.00,14.00,77.16,330.00,8.00,M,29.56,M,M,0.00,M,M,M,M,M,M,M,M,M,M
MDW,2001-01-19 18:53,-87.7524,41.7860,19.00,14.00,80.52,330.00,11.00,M,29.55,M,M,0.00,M,M,M,M,M,M,M,M,M,M
MDW,2001-01-19 19:53,-87.7524,41.7860,19.00,14.00,80.52,350.00,10.00,M,29.55,M,M,0.00,M,M,M,M,M,M,M,M,M,M
MDW,2001-01-19 20:53,-87.7524,41.7860,20.00,12.00,70.65,330.00,7.00,M,29.54,M,M,0.00,M,M,M,M,M,M,M,M,M,M
MDW,2001-01-19 21:53,-87.7524,41.7860,19.00,14.00,80.52,330.00,9.00,M,29.54,M,M,0.00,M,M,M,M,M,M,M,M,M,M
MDW,2001-01-19 22:53,-87.7524,41.7860,19.00,14.00,80.52,320.00,10.00,M,29.55,M,M,0.00,M,M,M,M,M,M,M,M,M,M
MDW,2001-01-19 23:53,-87.7524,41.7860,19.00,13.00,77.06,330.00,8.00,M,29.56,M,M,0.00,M,M,M,M,M,M,M,M,M,M
MDW,2001-01-20 00:53,-87.7524,41.7860,19.00,14.00,80.52,320.00,9.00,M,29.57,M,M,0.00,M,M,M,M,M,M,M,M,M,M
MDW,2001-01-20 01:53,-87.7524,41.7860,19.00,14.00,80.52,310.00,8.00,M,29.57,M,M,0.00,M,M,M,M,M,M,M,M,M,M
MDW,2001-01-20 02:53,-87.7524,41.7860,20.00,15.00,80.60,330.00,6.00,M,29.57,M,M,0.00,M,M,M,M,M,M,M,M,M,M
MDW,2001-01-20 03:53,-87.7524,41.7860,22.00,15.00,74.05,320.00,6.00,M,29.57,M,M,0.00,M,M,M,M,M,M,M,M,M,M
MDW,2001-01-20 04:53,-87.7524,41.7860,24.00,13.00,62.36,300.00,6.00,M,29.56,M,M,0.00,M,M,M,M,M,M,M,M,M,M
MDW,2001-01-20 05:53,-87.7524,41.7860,25.00,12.00,57.23,290.00,5.00,M,29.54,M,M,0.00,M,M,M,M,M,M,M,M,M,M
MDW,2001-01-20 06:53,-87.7524,41.7860,26.00,11.00,52.52,320.00,5.00,M,29.52,M,M,0.00,M,M,M,M,M,M,M,M,M,M
MDW,2001-01-20 07:53,-87.7524,41.7860,25.00,11.00,54.75,260.00,7.00,M,29.52,M,M,0.00,M,M,M,M,M,M,M,M,M,M
MDW,2001-01-20 08:53,-87.7524,41.7860,25.00,12.00,57.23,270.00,8.00,M,29.53,M,M,0.00,M,M,M,M,M,M,M,M,M,M
MDW,2001-01-20 09:53,-87.7524,41.7860,24.00,10.00,54.59,280.00,10.00,M,29.55,M,M,0.00,M,M,M,M,M,M,M,M,M,M
MDW,2001-01-20 10:53,-87.7524,41.7860,22.00,11.00,62.09,260.00,9.00,M,29.56,M,M,0.00,M,M,M,M,M,M,M,M,M,M
MDW,2001-01-20 11:53,-87.7524,41.7860,20.00,10.00,64.64,270.00,11.00,M,29.57,M,M,0.00,M,M,M,M,M,M,M,M,M,M
MDW,2001-01-20 12:53,-87.7524,41.7860,18.00,10.00,70.41,260.00,9.00,M,29.58,M,M,0.00,M,M,M,M,M,M,M,M,M,M
MDW,2001-01-20 13:53,-87.7524,41.7860,17.00,9.00,70.30,260.00,7.00,M,29.58,M,M,0.00,M,M,M,M,M,M,M,M,M,M
MDW,2001-01-20 14:53,-87.7524,41.7860,16.00,8.00,70.18,250.00,9.00,M,29.56,M,M,0.00,M,M,M,M,M,M,M,M,M,M
MDW,2001-01-20 15:53,-87.7524,41.7860,16.00,10.00,76.77,250.00,11.00,M,29.56,M,M,0.00,M,M,M,M,M,M,M,M,M,M
MDW,2001-01-20 16:53,-87.7524,41.7860,15.00,10.00,80.19,250.00,9.00,M,29.56,M,M,0.00,M,M,M,M,M,M,M,M,M,M
MDW,2001-01-20 17:53,-87.7524,41.7860,14.00,8.00,76.58,260.00,7.00,M,29.57,M,M,0.00,M,M,M,M,M,M,M,M,M,M
MDW,2001-01-20 18:53,-87.7524,41.7860,13.00,6.00,73.08,240.00,9.00,M,29.56,M,M,0.00,M,M,M,M,M,M,M,M,M,M
MDW,2001-01-20 19:53,-87.7524,41.7860,12.00,7.00,79.93,250.00,5.00,M,29.57,M,M,0.00,M,M,M,M,M,M,M,M,M,M
MDW,2001-01-20 20:53,-87.7524,41.7860,12.00,5.00,72.97,220.00,4.00,M,29.57,M,M,0.00,M,M,M,M,M,M,M,M,M,M
MDW,2001-01-20 21:53,-87.7524,41.7860,12.00,7.00,79.93,200.00,7.00,M,29.56,M,M,0.00,M,M,M,M,M,M,M,M,M,M
MDW,2001-01-20 22:53,-87.7524,41.7860,12.00,7.00,79.93,210.00,6.00,M,29.56,M,M,0.00,M,M,M,M,M,M,M,M,M,M
MDW,2001-01-20 23:53,-87.7524,41.7860,12.00,9.00,87.48,220.00,6.00,M,29.57,M,M,0.00,M,M,M,M,M,M,M,M,M,M
MDW,2001-01-21 00:53,-87.7524,41.7860,14.00,9.00,80.10,230.00,5.00,M,29.58,M,M,0.00,M,M,M,M,M,M,M,M,M,M
MDW,2001-01-21 01:53,-87.7524,41.7860,15.00,11.00,83.84,250.00,8.00,M,29.59,M,M,0.00,M,M,M,M,M,M,M,M,M,M
MDW,2001-01-21 02:53,-87.7524,41.7860,18.00,13.00,80.44,260.00,8.00,M,29.61,M,M,0.00,M,M,M,M,M,M,M,M,M,M
MDW,2001-01-21 03:53,-87.7524,41.7860,20.00,13.00,73.84,250.00,7.00,M,29.62,M,M,0.00,M,M,M,M,M,M,M,M,M,M
MDW,2001-01-21 04:53,-87.7524,41.7860,22.00,13.00,67.83,280.00,6.00,M,29.63,M,M,0.00,M,M,M,M,M,M,M,M,M,M
MDW,2001-01-21 05:53,-87.7524,41.7860,24.00,15.00,68.08,220.00,5.00,M,29.61,M,M,0.00,M,M,M,M,M,M,M,M,M,M
MDW,2001-01-21 06:53,-87.7524,41.7860,25.00,14.00,62.50,300.00,5.00,M,29.61,M,M,0.00,M,M,M,M,M,M,M,M,M,M
MDW,2001-01-21 07:53,-87.7524,41.7860,27.00,15.00,60.10,250.00,6.00,M,29.61,M,M,0.00,M,M,M,M,M,M,M,M,M,M
MDW,2001-01-21 08:53,-87.7524,41.7860,27.00,15.00,60.10,230.00,7.00,M,29.61,M,M,0.00,M,M,M,M,M,M,M,M,M,M
MDW,2001-01-21 09:53,-87.7524,41.7860,27.00,15.00,60.10,240.00,7.00,M,29.63,M,M,0.00,M,M,M,M,M,M,M,M,M,M
MDW,2001-01-21 10:53,-87.7524,41.7860,26.00,15.00,62.64,240.00,8.00,M,29.65,M,M,0.00,M,M,M,M,M,M,M,M,M,M
MDW,2001-01-21 11:12,-87.7524,41.7860,M,M,M,240.00,8.00,M,M,M,M,0.00,M,M,M,M,M,M,M,M,M,M
MDW,2001-01-21 11:53,-87.7524,41.7860,24.00,14.00,65.17,240.00,6.00,M,29.68,M,M,0.00,M,M,M,M,M,M,M,M,M,M
MDW,2001-01-21 12:53,-87.7524,41.7860,23.00,15.00,70.99,270.00,5.00,M,29.70,M,M,0.00,M,M,M,M,M,M,M,M,M,M
MDW,2001-01-21 13:53,-87.7524,41.7860,21.00,13.00,70.76,0.00,0.00,M,29.70,M,M,0.00,M,M,M,M,M,M,M,M,M,M
MDW,2001-01-21 14:53,-87.7524,41.7860,20.00,12.00,70.65,300.00,3.00,M,29.70,M,M,0.00,M,M,M,M,M,M,M,M,M,M
MDW,2001-01-21 15:53,-87.7524,41.7860,19.00,14.00,80.52,290.00,4.00,M,29.71,M,M,0.00,M,M,M,M,M,M,M,M,M,M
MDW,2001-01-21 16:53,-87.7524,41.7860,18.00,13.00,80.44,0.00,0.00,M,29.69,M,M,0.00,M,M,M,M,M,M,M,M,M,M
MDW,2001-01-21 17:53,-87.7524,41.7860,18.00,13.00,80.44,0.00,0.00,M,29.69,M,M,0.00,M,M,M,M,M,M,M,M,M,M
MDW,2001-01-21 18:53,-87.7524,41.7860,17.00,12.00,80.36,300.00,4.00,M,29.70,M,M,0.00,M,M,M,M,M,M,M,M,M,M
MDW,2001-01-21 19:53,-87.7524,41.7860,17.00,12.00,80.36,290.00,3.00,M,29.71,M,M,0.00,M,M,M,M,M,M,M,M,M,M
MDW,2001-01-21 20:53,-87.7524,41.7860,16.00,10.00,76.77,280.00,3.00,M,29.72,M,M,0.00,M,M,M,M,M,M,M,M,M,M
MDW,2001-01-21 21:53,-87.7524,41.7860,16.00,12.00,83.91,220.00,3.00,M,29.72,M,M,0.00,M,M,M,M,M,M,M,M,M,M
MDW,2001-01-21 22:53,-87.7524,41.7860,15.00,11.00,83.84,0.00,0.00,M,29.71,M,M,0.00,M,M,M,M,M,M,M,M,M,M
MDW,2001-01-21 23:53,-87.7524,41.7860,15.00,10.00,80.19,180.00,7.00,M,29.70,M,M,0.00,M,M,M,M,M,M,M,M,M,M
MDW,2001-01-22 00:53,-87.7524,41.7860,15.00,10.00,80.19,230.00,4.00,M,29.72,M,M,0.00,M,M,M,M,M,M,M,M,M,M
MDW,2001-01-22 01:53,-87.7524,41.7860,16.00,12.00,83.91,280.00,4.00,M,29.73,M,M,0.00,M,M,M,M,M,M,M,M,M,M
MDW,2001-01-22 02:53,-87.7524,41.7860,18.00,14.00,84.05,260.00,5.00,M,29.74,M,M,0.00,M,M,M,M,M,M,M,M,M,M
MDW,2001-01-22 03:53,-87.7524,41.7860,21.00,15.00,77.25,210.00,5.00,M,29.74,M,M,0.00,M,M,M,M,M,M,M,M,M,M
MDW,2001-01-22 04:53,-87.7524,41.7860,24.00,16.00,71.11,230.00,5.00,M,29.73,M,M,0.00,M,M,M,M,M,M,M,M,M,M
MDW,2001-01-22 05:53,-87.7524,41.7860,27.00,17.00,65.56,220.00,6.00,M,29.70,M,M,0.00,M,M,M,M,M,M,M,M,M,M
MDW,2001-01-22 06:53,-87.7524,41.7860,29.00,18.00,63.05,210.00,7.00,M,29.66,M,M,0.00,M,M,M,M,M,M,M,M,M,M
MDW,2001-01-22 07:53,-87.7524,41.7860,30.00,19.00,63.18,230.00,8.00,M,29.65,M,M,0.00,M,M,M,M,M,M,M,M,M,M
MDW,2001-01-22 08:53,-87.7524,41.7860,30.00,19.00,63.18,220.00,7.00,M,29.64,M,M,0.00,M,M,M,M,M,M,M,M,M,M
MDW,2001-01-22 09:53,-87.7524,41.7860,29.00,19.00,65.81,220.00,7.00,M,29.63,M,M,0.00,M,M,M,M,M,M,M,M,M,M
MDW,2001-01-22 10:53,-87.7524,41.7860,28.00,18.00,65.69,220.00,7.00,M,29.63,M,M,0.00,M,M,M,M,M,M,M,M,M,M
MDW,2001-01-22 11:53,-87.7524,41.7860,26.00,19.00,74.46,200.00,8.00,M,29.63,M,M,0.00,M,M,M,M,M,M,M,M,M,M
MDW,2001-01-22 12:53,-87.7524,41.7860,25.00,19.00,77.62,210.00,9.00,M,29.62,M,M,0.00,M,M,M,M,M,M,M,M,M,M
MDW,2001-01-22 13:53,-87.7524,41.7860,25.00,20.00,81.01,200.00,8.00,M,29.60,M,M,0.00,M,M,M,M,M,M,M,M,M,M
MDW,2001-01-22 14:53,-87.7524,41.7860,25.00,21.00,84.53,210.00,7.00,M,29.58,M,M,0.00,M,M,M,M,M,M,M,M,M,M
MDW,2001-01-22 15:53,-87.7524,41.7860,26.00,22.00,84.59,220.00,5.00,M,29.57,M,M,0.00,M,M,M,M,M,M,M,M,M,M
MDW,2001-01-22 16:53,-87.7524,41.7860,28.00,24.00,84.72,220.00,8.00,M,29.56,M,M,0.00,M,M,M,M,M,M,M,M,M,M
MDW,2001-01-22 17:53,-87.7524,41.7860,29.00,26.00,88.38,230.00,7.00,M,29.56,M,M,0.00,M,M,M,M,M,M,M,M,M,M
MDW,2001-01-22 18:53,-87.7524,41.7860,29.00,25.00,84.79,220.00,6.00,M,29.55,M,M,0.00,M,M,M,M,M,M,M,M,M,M
MDW,2001-01-22 19:53,-87.7524,41.7860,29.00,25.00,84.79,210.00,7.00,M,29.53,M,M,0.00,M,M,M,M,M,M,M,M,M,M
MDW,2001-01-22 20:53,-87.7524,41.7860,30.00,24.00,78.07,210.00,9.00,M,29.51,M,M,0.00,M,M,M,M,M,M,M,M,M,M
MDW,2001-01-22 21:53,-87.7524,41.7860,31.00,25.00,78.16,220.00,5.00,M,29.51,M,M,0.00,M,M,M,M,M,M,M,M,M,M
MDW,2001-01-22 22:53,-87.7524,41.7860,32.00,25.00,75.07,240.00,8.00,M,29.49,M,M,0.00,M,M,M,M,M,M,M,M,M,M
MDW,2001-01-22 23:53,-87.7524,41.7860,32.00,25.00,75.07,260.00,7.00,M,29.49,M,M,0.00,M,M,M,M,M,M,M,M,M,M
MDW,2001-01-23 00:53,-87.7524,41.7860,31.00,25.00,78.16,260.00,9.00,M,29.49,M,M,0.00,M,M,M,M,M,M,M,M,M,M
MDW,2001-01-23 01:53,-87.7524,41.7860,29.00,24.00,81.32,260.00,6.00,M,29.49,M,M,0.00,M,M,M,M,M,M,M,M,M,M
MDW,2001-01-23 02:53,-87.7524,41.7860,29.00,24.00,81.32,290.00,5.00,M,29.49,M,M,0.00,M,M,M,M,M,M,M,M,M,M
MDW,2001-01-23 03:53,-87.7524,41.7860,31.00,24.00,74.97,280.00,4.00,M,29.50,M,M,0.00,M,M,M,M,M,M,M,M,M,M
MDW,2001-01-23 04:53,-87.7524,41.7860,33.00,25.00,72.11,210.00,6.00,M,29.50,M,M,0.00,M,M,M,M,M,M,M,M,M,M
MDW,2001-01-23 05:53,-87.7524,41.7860,35.00,26.00,69.39,230.00,7.00,M,29.47,M,M,0.00,M,M,M,M,M,M,M,M,M,M
MDW,2001-01-23 06:53,-87.7524,41.7860,36.00,25.00,63.98,240.00,8.00,M,29.46,M,M,0.00,M,M,M,M,M,M,M,M,M,M
MDW,2001-01-23 07:53,-87.7524,41.7860,36.00,25.00,63.98,250.00,9.00,M,29.45,M,M,0.00,M,M,M,M,M,M,M,M,M,M
MDW,2001-01-23 08:53,-87.7524,41.7860,36.00,25.00,63.98,250.00,6.00,M,29.45,M,M,0.00,M,M,M,M,M,M,M,M,M,M
MDW,2001-01-23 09:53,-87.7524,41.7860,35.00,25.00,66.57,270.00,8.00,M,29.46,M,M,0.00,M,M,M,M,M,M,M,M,M,M
MDW,2001-01-23 10:53,-87.7524,41.7860,32.00,24.00,72.00,270.00,8.00,M,29.46,M,M,0.00,M,M,M,M,M,M,M,M,M,M
MDW,2001-01-23 11:53,-87.7524,41.7860,30.00,24.00,78.07,270.00,10.00,M,29.47,M,M,0.00,M,M,M,M,M,M,M,M,M,M
MDW,2001-01-23 12:53,-87.7524,41.7860,27.00,21.00,77.80,280.00,9.00,M,29.47,M,M,0.00,M,M,M,M,M,M,M,M,M,M
MDW,2001-01-23 13:53,-87.7524,41.7860,25.00,20.00,81.01,290.00,7.00,M,29.46,M,M,0.00,M,M,M,M,M,M,M,M,M,M
MDW,2001-01-23 14:53,-87.7524,41.7860,25.00,20.00,81.01,300.00,7.00,M,29.46,M,M,0.00,M,M,M,M,M,M,M,M,M,M
MDW,2001-01-23 15:53,-87.7524,41.7860,25.00,20.00,81.01,280.00,5.00,M,29.46,M,M,0.00,M,M,M,M,M,M,M,M,M,M
MDW,2001-01-23 16:53,-87.7524,41.7860,24.00,20.00,84.46,250.00,6.00,M,29.44,M,M,0.00,M,M,M,M,M,M,M,M,M,M
MDW,2001-01-23 17:53,-87.7524,41.7860,23.00,21.00,91.90,240.00,6.00,M,29.42,M,M,0.00,M,M,M,M,M,M,M,M,M,M
MDW,2001-01-23 18:53,-87.7524,41.7860,22.00,19.00,88.02,260.00,7.00,M,29.42,M,M,0.00,M,M,M,M,M,M,M,M,M,M
MDW,2001-01-23 19:53,-87.7524,41.7860,23.00,19.00,84.39,260.00,7.00,M,29.41,M,M,0.00,M,M,M,M,M,M,M,M,M,M
MDW,2001-01-23 20:53,-87.7524,41.7860,22.00,15.00,74.05,270.00,6.00,M,29.41,M,M,0.00,M,M,M,M,M,M,M,M,M,M
MDW,2001-01-23 21:53,-87.7524,41.7860,22.00,17.00,80.77,280.00,7.00,M,29.40,M,M,0.00,M,M,M,M,M,M,M,M,M,M
MDW,2001-01-23 22:53,-87.7524,41.7860,21.00,17.00,84.26,280.00,6.00,M,29.40,M,M,0.00,M,M,M,M,M,M,M,M,M,M
MDW,2001-01-23 23:53,-87.7524,41.7860,20.00,16.00,84.19,290.00,6.00,M,29.41,M,M,0.00,M,M,M,M,M,M,M,M,M,M
MDW,2001-01-24 00:53,-87.7524,41.7860,20.00,15.00,80.60,280.00,8.00,M,29.41,M,M,0.00,M,M,M,M,M,M,M,M,M,M
MDW,2001-01-24 01:53,-87.7524,41.7860,19.00,16.00,87.87,280.00,9.00,M,29.43,M,M,0.00,M,M,M,M,M,M,M,M,M,M
MDW,2001-01-24 02:53,-87.7524,41.7860,21.00,16.00,80.69,290.00,9.00,M,29.44,M,M,0.00,M,M,M,M,M,M,M,M,M,M
MDW,2001-01-24 03:53,-87.7524,41.7860,24.00,17.00,74.26,290.00,9.00,M,29.46,M,M,0.00,M,M,M,M,M,M,M,M,M,M
MDW,2001-01-24 04:53,-87.7524,41.7860,26.00,18.00,71.33,310.00,11.00,M,29.46,M,M,0.00,M,M,M,M,M,M,M,M,M,M
MDW,2001-01-24 05:53,-87.7524,41.7860,28.00,19.00,68.57,330.00,12.00,M,29.46,M,M,0.00,M,M,M,M,M,M,M,M,M,M
MDW,2001-01-24 06:02,-87.7524,41.7860,M,M,M,320.00,13.00,M,M,M,M,0.00,M,M,M,M,M,M,M,M,M,M
MDW,2001-01-24 06:13,-87.7524,41.7860,M,M,M,340.00,14.00,M,M,M,M,0.00,M,M,M,M,M,M,M,M,M,M
MDW,2001-01-24 06:53,-87.7524,41.7860,28.00,19.00,68.57,310.00,12.00,M,29.47,M,M,0.00,M,M,M,M,M,M,M,M,M,M
MDW,2001-01-24 07:53,-87.7524,41.7860,28.00,18.00,65.69,320.00,14.00,M,29.48,M,M,0.00,M,M,M,M,M,M,M,M,M,M
MDW,2001-01-24 08:53,-87.7524,41.7860,28.00,17.00,62.91,320.00,13.00,M,29.51,M,M,0.00,M,M,M,M,M,M,M,M,M,M
MDW,2001-01-24 08:54,-87.7524,41.7860,M,M,M,310.00,12.00,M,M,M,M,0.00,M,M,M,M,M,M,M,M,M,M
MDW,2001-01-24 09:25,-87.7524,41.7860,M,M,M,330.00,17.00,M,M,M,M,0.00,M,M,M,M,M,M,M,M,M,M
MDW,2001-01-24 09:53,-87.7524,41.7860,29.00,17.00,60.39,330.00,16.00,M,29.53,M,M,0.00,M,M,M,M,M,M,M,M,M,M
MDW,2001-01-24 10:53,-87.7524,41.7860,27.00,18.00,68.45,320.00,12.00,M,29.57,M,M,0.00,M,M,M,M,M,M,M,M,M,M
MDW,2001-01-24 11:35,-87.7524,41.7860,M,M,M,320.00,15.00,M,M,M,M,0.00,M,M,M,M,M,M,M,M,M,M
MDW,2001-01-24 11:36,-87.7524,41.7860,M,M,M,320.00,14.00,M,M,M,M,0.00,M,M,M,M,M,M,M,M,M,M
MDW,2001-01-24 11:37,-87.7524,41.7860,M,M,M,330.00,14.00,M,M,M,M,0.00,M,M,M,M,M,M,M,M,M,M
MDW,2001-01-24 11:53,-87.7524,41.7860,26.00,22.00,84.59,330.00,13.00,M,29.60,M,M,0.00,M,M,M,M,M,M,M,M,M,M
MDW,2001-01-24 11:58,-87.7524,41.7860,M,M,M,330.00,12.00,M,M,M,M,0.00,M,M,M,M,M,M,M,M,M,M
MDW,2001-01-24 12:25,-87.7524,41.7860,M,M,M,330.00,12.00,M,M,M,M,0.00,M,M,M,M,M,M,M,M,M,M
MDW,2001-01-24 12:53,-87.7524,41.7860,27.00,20.00,74.57,340.00,12.00,M,29.62,M,M,0.00,M,M,M,M,M,M,M,M,M,M
MDW,2001-01-24 13:53,-87.7524,41.7860,27.00,18.00,68.45,340.00,14.00,M,29.63,M,M,0.00,M,M,M,M,M,M,M,M,M,M
MDW,2001-01-24 14:53,-87.7524,41.7860,25.00,16.00,68.20,330.00,12.00,M,29.65,M,M,0.00,M,M,M,M,M,M,M,M,M,M
MDW,2001-01-24 15:53,-87.7524,41.7860,24.00,15.00,68.08,330.00,13.00,M,29.67,M,M,0.00,M,M,M,M,M,M,M,M,M,M
MDW,2001-01-24 16:53,-87.7524,41.7860,23.00,11.00,59.52,320.00,12.00,M,29.68,M,M,0.00,M,M,M,M,M,M,M,M,M,M
MDW,2001-01-24 17:53,-87.7524,41.7860,22.00,11.00,62.09,330.00,12.00,M,29.70,M,M,0.00,M,M,M,M,M,M,M,M,M,M
MDW,2001-01-24 18:53,-87.7524,41.7860,21.00,11.00,64.77,330.00,11.00,M,29.71,M,M,0.00,M,M,M,M,M,M,M,M,M,M
MDW,2001-01-24 19:53,-87.7524,41.7860,20.00,11.00,67.58,330.00,9.00,M,29.72,M,M,0.00,M,M,M,M,M,M,M,M,M,M
MDW,2001-01-24 20:53,-87.7524,41.7860,18.00,9.00,67.33,310.00,6.00,M,29.73,M,M,0.00,M,M,M,M,M,M,M,M,M,M
MDW,2001-01-24 21:53,-87.7524,41.7860,17.00,10.00,73.52,310.00,5.00,M,29.73,M,M,0.00,M,M,M,M,M,M,M,M,M,M
MDW,2001-01-24 22:53,-87.7524,41.7860,16.00,9.00,73.41,300.00,5.00,M,29.75,M,M,0.00,M,M,M,M,M,M,M,M,M,M
MDW,2001-01-24 23:53,-87.7524,41.7860,16.00,8.00,70.18,300.00,7.00,M,29.77,M,M,0.00,M,M,M,M,M,M,M,M,M,M
MDW,2001-01-25 00:53,-87.7524,41.7860,15.00,8.00,73.30,290.00,7.00,M,29.77,M,M,0.00,M,M,M,M,M,M,M,M,M,M
MDW,2001-01-25 01:53,-87.7524,41.7860,16.00,8.00,70.18,310.00,6.00,M,29.77,M,M,0.00,M,M,M,M,M,M,M,M,M,M
MDW,2001-01-25 02:53,-87.7524,41.7860,18.00,9.00,67.33,290.00,5.00,M,29.79,M,M,0.00,M,M,M,M,M,M,M,M,M,M
MDW,2001-01-25 03:53,-87.7524,41.7860,22.00,11.00,62.09,280.00,7.00,M,29.80,M,M,0.00,M,M,M,M,M,M,M,M,M,M
MDW,2001-01-25 04:53,-87.7524,41.7860,25.00,11.00,54.75,280.00,8.00,M,29.79,M,M,0.00,M,M,M,M,M,M,M,M,M,M
MDW,2001-01-25 05:53,-87.7524,41.7860,26.00,12.00,54.90,250.00,10.00,M,29.76,M,M,0.00,M,M,M,M,M,M,M,M,M,M
MDW,2001-01-25 06:53,-87.7524,41.7860,25.00,12.00,57.23,260.00,12.00,M,29.74,M,M,0.00,M,M,M,M,M,M,M,M,M,M
MDW,2001-01-25 07:53,-87.7524,41.7860,26.00,11.00,52.52,260.00,12.00,M,29.72,M,M,0.00,M,M,M,M,M,M,M,M,M,M
MDW,2001-01-25 08:53,-87.7524,41.7860,26.00,12.00,54.90,250.00,12.00,M,29.72,M,M,0.00,M,M,M,M,M,M,M,M,M,M
MDW,2001-01-25 09:53,-87.7524,41.7860,25.00,12.00,57.23,240.00,10.00,M,29.70,M,M,0.00,M,M,M,M,M,M,M,M,M,M
MDW,2001-01-25 10:53,-87.7524,41.7860,24.00,12.00,59.67,210.00,6.00,M,29.67,M,M,0.00,M,M,M,M,M,M,M,M,M,M
MDW,2001-01-25 11:53,-87.7524,41.7860,24.00,13.00,62.36,210.00,7.00,M,29.66,M,M,0.00,M,M,M,M,M,M,M,M,M,M
MDW,2001-01-25 12:53,-87.7524,41.7860,22.00,13.00,67.83,190.00,8.00,M,29.65,M,M,0.00,M,M,M,M,M,M,M,M,M,M
MDW,2001-01-25 13:53,-87.7524,41.7860,21.00,14.00,73.94,200.00,7.00,M,29.64,M,M,0.00,M,M,M,M,M,M,M,M,M,M
MDW,2001-01-25 14:53,-87.7524,41.7860,21.00,13.00,70.76,200.00,8.00,M,29.63,M,M,0.00,M,M,M,M,M,M,M,M,M,M
MDW,2001-01-25 15:53,-87.7524,41.7860,21.00,15.00,77.25,190.00,8.00,M,29.60,M,M,0.00,M,M,M,M,M,M,M,M,M,M
MDW,2001-01-25 16:53,-87.7524,41.7860,22.00,16.00,77.34,200.00,9.00,M,29.55,M,M,0.00,M,M,M,M,M,M,M,M,M,M
MDW,2001-01-25 17:53,-87.7524,41.7860,23.00,15.00,70.99,190.00,7.00,M,29.53,M,M,0.00,M,M,M,M,M,M,M,M,M,M
MDW,2001-01-25 18:53,-87.7524,41.7860,24.00,15.00,68.08,210.00,11.00,M,29.51,M,M,0.00,M,M,M,M,M,M,M,M,M,M
MDW,2001-01-25 19:53,-87.7524,41.7860,24.00,15.00,68.08,200.00,11.00,M,29.50,M,M,0.00,M,M,M,M,M,M,M,M,M,M
MDW,2001-01-25 20:53,-87.7524,41.7860,24.00,15.00,68.08,190.00,11.00,M,29.47,M,M,0.00,M,M,M,M,M,M,M,M,M,M
MDW,2001-01-25 21:53,-87.7524,41.7860,24.00,15.00,68.08,200.00,10.00,M,29.45,M,M,0.00,M,M,M,M,M,M,M,M,M,M
MDW,2001-01-25 22:53,-87.7524,41.7860,24.00,15.00,68.08,190.00,12.00,M,29.41,M,M,0.00,M,M,M,M,M,M,M,M,M,M
MDW,2001-01-25 23:53,-87.7524,41.7860,26.00,16.00,65.43,180.00,13.00,M,29.32,M,M,19.00,M,M,M,M,M,M,M,M,M,M
MDW,2001-01-26 00:53,-87.7524,41.7860,27.00,17.00,65.56,190.00,11.00,M,29.29,M,M,18.00,M,M,M,M,M,M,M,M,M,M
MDW,2001-01-26 01:53,-87.7524,41.7860,27.00,17.00,65.56,190.00,15.00,M,29.25,M,M,18.00,M,M,M,M,M,M,M,M,M,M
MDW,2001-01-26 02:04,-87.7524,41.7860,M,M,M,180.00,11.00,M,M,M,M,19.00,M,M,M,M,M,M,M,M,M,M
MDW,2001-01-26 02:35,-87.7524,41.7860,M,M,M,180.00,17.00,M,M,M,M,22.00,M,M,M,M,M,M,M,M,M,M
MDW,2001-01-26 02:53,-87.7524,41.7860,26.00,22.00,84.59,180.00,13.00,M,29.22,M,M,19.00,M,M,M,M,M,M,M,M,M,M
MDW,2001-01-26 03:27,-87.7524,41.7860,M,M,M,180.00,11.00,M,M,M,M,0.00,M,M,M,M,M,M,M,M,M,M
MDW,2001-01-26 03:53,-87.7524,41.7860,27.00,24.00,88.28,190.00,13.00,M,29.21,M,M,0.00,M,M,M,M,M,M,M,M,M,M
MDW,2001-01-26 04:53,-87.7524,41.7860,28.00,25.00,88.33,190.00,14.00,M,29.17,M,M,20.00,M,M,M,M,M,M,M,M,M,M
MDW,2001-01-26 04:54,-87.7524,41.7860,M,M,M,200.00,13.00,M,M,M,M,0.00,M,M,M,M,M,M,M,M,M,M
MDW,2001-01-26 04:55,-87.7524,41.7860,M,M,M,200.00,13.00,M,M,M,M,0.00,M,M,M,M,M,M,M,M,M,M
MDW,2001-01-26 05:08,-87.7524,41.7860,M,M,M,190.00,14.00,M,M,M,M,19.00,M,M,M,M,M,M,M,M,M,M
MDW,2001-01-26 05:22,-87.7524,41.7860,M,M,M,190.00,13.00,M,M,M,M,0.00,M,M,M,M,M,M,M,M,M,M
MDW,2001-01-26 05:53,-87.7524,41.7860,29.00,26.00,88.38,210.00,13.00,M,29.12,M,M,0.00,M,M,M,M,M,M,M,M,M,M
MDW,2001-01-26 06:53,-87.7524,41.7860,29.00,25.00,84.79,210.00,12.00,M,29.08,M,M,0.00,M,M,M,M,M,M,M,M,M,M
MDW,2001-01-26 07:30,-87.7524,41.7860,M,M,M,210.00,11.00,M,M,M,M,0.00,M,M,M,M,M,M,M,M,M,M
MDW,2001-01-26 07:53,-87.7524,41.7860,30.00,27.00,88.44,210.00,8.00,M,29.06,M,M,0.00,M,M,M,M,M,M,M,M,M,M
MDW,2001-01-26 07:54,-87.7524,41.7860,M,M,M,210.00,9.00,M,M,M,M,0.00,M,M,M,M,M,M,M,M,M,M
MDW,2001-01-26 08:04,-87.7524,41.7860,M,M,M,220.00,8.00,M,M,M,M,0.00,M,M,M,M,M,M,M,M,M,M
MDW,2001-01-26 08:05,-87.7524,41.7860,M,M,M,210.00,8.00,M,M,M,M,0.00,M,M,M,M,M,M,M,M,M,M
MDW,2001-01-26 08:23,-87.7524,41.7860,M,M,M,210.00,7.00,M,M,M,M,0.00,M,M,M,M,M,M,M,M,M,M
MDW,2001-01-26 08:24,-87.7524,41.7860,M,M,M,210.00,7.00,M,M,M,M,0.00,M,M,M,M,M,M,M,M,M,M
MDW,2001-01-26 08:53,-87.7524,41.7860,31.00,28.00,88.48,210.00,8.00,M,29.06,M,M,0.00,M,M,M,M,M,M,M,M,M,M
MDW,2001-01-26 09:15,-87.7524,41.7860,M,M,M,220.00,7.00,M,M,M,M,0.00,M,M,M,M,M,M,M,M,M,M
MDW,2001-01-26 09:38,-87.7524,41.7860,M,M,M,230.00,5.00,M,M,M,M,0.00,M,M,M,M,M,M,M,M,M,M
MDW,2001-01-26 09:53,-87.7524,41.7860,31.00,29.00,92.19,230.00,6.00,M,29.06,M,M,0.00,M,M,M,M,M,M,M,M,M,M
MDW,2001-01-26 10:53,-87.7524,41.7860,31.00,30.00,96.02,250.00,10.00,M,29.08,M,M,0.00,M,M,M,M,M,M,M,M,M,M
MDW,2001-01-26 10:56,-87.7524,41.7860,M,M,M,250.00,10.00,M,M,M,M,0.00,M,M,M,M,M,M,M,M,M,M
MDW,2001-01-26 11:21,-87.7524,41.7860,M,M,M,270.00,9.00,M,M,M,M,0.00,M,M,M,M,M,M,M,M,M,M
MDW,2001-01-26 11:53,-87.7524,41.7860,32.00,29.00,88.53,270.00,9.00,M,29.11,M,M,0.00,M,M,M,M,M,M,M,M,M,M
MDW,2001-01-26 12:23,-87.7524,41.7860,M,M,M,280.00,10.00,M,M,M,M,0.00,M,M,M,M,M,M,M,M,M,M
MDW,2001-01-26 12:53,-87.7524,41.7860,31.00,28.00,88.48,300.00,14.00,M,29.14,M,M,0.00,M,M,M,M,M,M,M,M,M,M
MDW,2001-01-26 12:55,-87.7524,41.7860,M,M,M,290.00,14.00,M,M,M,M,0.00,M,M,M,M,M,M,M,M,M,M
MDW,2001-01-26 13:53,-87.7524,41.7860,30.00,27.00,88.44,300.00,12.00,M,29.17,M,M,0.00,M,M,M,M,M,M,M,M,M,M
MDW,2001-01-26 14:53,-87.7524,41.7860,29.00,24.00,81.32,300.00,11.00,M,29.20,M,M,18.00,M,M,M,M,M,M,M,M,M,M
MDW,2001-01-26 15:53,-87.7524,41.7860,29.00,23.00,77.98,310.00,12.00,M,29.24,M,M,19.00,M,M,M,M,M,M,M,M,M,M
MDW,2001-01-26 16:53,-87.7524,41.7860,28.00,21.00,74.67,320.00,14.00,M,29.28,M,M,21.00,M,M,M,M,M,M,M,M,M,M
MDW,2001-01-26 17:53,-87.7524,41.7860,27.00,19.00,71.45,310.00,15.00,M,29.32,M,M,23.00,M,M,M,M,M,M,M,M,M,M
MDW,2001-01-26 18:53,-87.7524,41.7860,27.00,19.00,71.45,310.00,15.00,M,29.35,M,M,0.00,M,M,M,M,M,M,M,M,M,M
MDW,2001-01-26 19:53,-87.7524,41.7860,27.00,19.00,71.45,320.00,13.00,M,29.39,M,M,23.00,M,M,M,M,M,M,M,M,M,M
MDW,2001-01-26 20:53,-87.7524,41.7860,25.00,15.00,65.30,320.00,13.00,M,29.43,M,M,23.00,M,M,M,M,M,M,M,M,M,M
MDW,2001-01-26 21:06,-87.7524,41.7860,M,M,M,310.00,13.00,M,M,M,M,18.00,M,M,M,M,M,M,M,M,M,M
MDW,2001-01-26 21:53,-87.7524,41.7860,23.00,15.00,70.99,310.00,10.00,M,29.47,M,M,18.00,M,M,M,M,M,M,M,M,M,M
MDW,2001-01-26 22:53,-87.7524,41.7860,22.00,13.00,67.83,310.00,13.00,M,29.51,M,M,0.00,M,M,M,M,M,M,M,M,M,M
MDW,2001-01-26 23:53,-87.7524,41.7860,21.00,12.00,67.71,320.00,10.00,M,29.54,M,M,0.00,M,M,M,M,M,M,M,M,M,M
MDW,2001-01-27 00:53,-87.7524,41.7860,20.00,11.00,67.58,330.00,11.00,M,29.57,M,M,0.00,M,M,M,M,M,M,M,M,M,M
MDW,2001-01-27 01:53,-87.7524,41.7860,19.00,11.00,70.53,320.00,8.00,M,29.60,M,M,0.00,M,M,M,M,M,M,M,M,M,M
MDW,2001-01-27 02:53,-87.7524,41.7860,20.00,10.00,64.64,340.00,10.00,M,29.62,M,M,0.00,M,M,M,M,M,M,M,M,M,M
MDW,2001-01-27 03:53,-87.7524,41.7860,22.00,11.00,62.09,330.00,8.00,M,29.63,M,M,0.00,M,M,M,M,M,M,M,M,M,M
MDW,2001-01-27 04:53,-87.7524,41.7860,24.00,12.00,59.67,280.00,11.00,M,29.64,M,M,0.00,M,M,M,M,M,M,M,M,M,M
MDW,2001-01-27 05:53,-87.7524,41.7860,26.00,14.00,59.96,290.00,12.00,M,29.63,M,M,0.00,M,M,M,M,M,M,M,M,M,M
MDW,2001-01-27 06:53,-87.7524,41.7860,25.00,16.00,68.20,270.00,11.00,M,29.62,M,M,0.00,M,M,M,M,M,M,M,M,M,M
MDW,2001-01-27 07:53,-87.7524,41.7860,26.00,16.00,65.43,250.00,8.00,M,29.60,M,M,0.00,M,M,M,M,M,M,M,M,M,M
MDW,2001-01-27 08:53,-87.7524,41.7860,26.00,17.00,68.32,260.00,9.00,M,29.60,M,M,0.00,M,M,M,M,M,M,M,M,M,M
MDW,2001-01-27 09:53,-87.7524,41.7860,24.00,16.00,71.11,240.00,12.00,M,29.60,M,M,0.00,M,M,M,M,M,M,M,M,M,M
MDW,2001-01-27 10:53,-87.7524,41.7860,22.00,14.00,70.88,250.00,12.00,M,29.61,M,M,0.00,M,M,M,M,M,M,M,M,M,M
MDW,2001-01-27 11:53,-87.7524,41.7860,20.00,13.00,73.84,250.00,11.00,M,29.63,M,M,0.00,M,M,M,M,M,M,M,M,M,M
MDW,2001-01-27 12:53,-87.7524,41.7860,19.00,11.00,70.53,250.00,11.00,M,29.63,M,M,0.00,M,M,M,M,M,M,M,M,M,M
MDW,2001-01-27 13:53,-87.7524,41.7860,18.00,10.00,70.41,260.00,9.00,M,29.60,M,M,0.00,M,M,M,M,M,M,M,M,M,M
MDW,2001-01-27 14:53,-87.7524,41.7860,17.00,9.00,70.30,230.00,10.00,M,29.58,M,M,0.00,M,M,M,M,M,M,M,M,M,M
MDW,2001-01-27 15:53,-87.7524,41.7860,17.00,11.00,76.87,240.00,12.00,M,29.58,M,M,0.00,M,M,M,M,M,M,M,M,M,M
MDW,2001-01-27 16:53,-87.7524,41.7860,18.00,11.00,73.63,250.00,12.00,M,29.61,M,M,0.00,M,M,M,M,M,M,M,M,M,M
MDW,2001-01-27 17:53,-87.7524,41.7860,17.00,9.00,70.30,260.00,11.00,M,29.61,M,M,0.00,M,M,M,M,M,M,M,M,M,M
MDW,2001-01-27 18:53,-87.7524,41.7860,16.00,9.00,73.41,280.00,8.00,M,29.62,M,M,0.00,M,M,M,M,M,M,M,M,M,M
MDW,2001-01-27 19:53,-87.7524,41.7860,16.00,10.00,76.77,250.00,10.00,M,29.63,M,M,0.00,M,M,M,M,M,M,M,M,M,M
MDW,2001-01-27 20:53,-87.7524,41.7860,17.00,8.00,67.20,240.00,7.00,M,29.61,M,M,0.00,M,M,M,M,M,M,M,M,M,M
MDW,2001-01-27 21:53,-87.7524,41.7860,17.00,9.00,70.30,250.00,7.00,M,29.59,M,M,0.00,M,M,M,M,M,M,M,M,M,M
MDW,2001-01-27 22:53,-87.7524,41.7860,16.00,9.00,73.41,250.00,9.00,M,29.60,M,M,0.00,M,M,M,M,M,M,M,M,M,M
MDW,2001-01-27 23:53,-87.7524,41.7860,15.00,9.00,76.68,250.00,6.00,M,29.59,M,M,0.00,M,M,M,M,M,M,M,M,M,M
MDW,2001-01-28 00:53,-87.7524,41.7860,15.00,9.00,76.68,250.00,7.00,M,29.60,M,M,0.00,M,M,M,M,M,M,M,M,M,M
MDW,2001-01-28 01:53,-87.7524,41.7860,16.00,10.00,76.77,250.00,9.00,M,29.62,M,M,0.00,M,M,M,M,M,M,M,M,M,M
MDW,2001-01-28 02:53,-87.7524,41.7860,17.00,11.00,76.87,250.00,4.00,M,29.63,M,M,0.00,M,M,M,M,M,M,M,M,M,M
MDW,2001-01-28 03:53,-87.7524,41.7860,20.00,13.00,73.84,250.00,8.00,M,29.63,M,M,0.00,M,M,M,M,M,M,M,M,M,M
MDW,2001-01-28 04:53,-87.7524,41.7860,21.00,12.00,67.71,220.00,8.00,M,29.63,M,M,0.00,M,M,M,M,M,M,M,M,M,M
MDW,2001-01-28 05:53,-87.7524,41.7860,23.00,13.00,65.03,250.00,7.00,M,29.63,M,M,0.00,M,M,M,M,M,M,M,M,M,M
MDW,2001-01-28 06:53,-87.7524,41.7860,25.00,15.00,65.30,240.00,6.00,M,29.61,M,M,0.00,M,M,M,M,M,M,M,M,M,M
MDW,2001-01-28 07:53,-87.7524,41.7860,26.00,18.00,71.33,230.00,6.00,M,29.60,M,M,0.00,M,M,M,M,M,M,M,M,M,M
MDW,2001-01-28 08:53,-87.7524,41.7860,27.00,18.00,68.45,220.00,6.00,M,29.58,M,M,0.00,M,M,M,M,M,M,M,M,M,M
MDW,2001-01-28 09:53,-87.7524,41.7860,28.00,18.00,65.69,220.00,4.00,M,29.58,M,M,0.00,M,M,M,M,M,M,M,M,M,M
MDW,2001-01-28 10:53,-87.7524,41.7860,29.00,20.00,68.69,220.00,6.00,M,29.58,M,M,0.00,M,M,M,M,M,M,M,M,M,M
MDW,2001-01-28 11:53,-87.7524,41.7860,27.00,22.00,81.17,210.00,8.00,M,29.58,M,M,0.00,M,M,M,M,M,M,M,M,M,M
MDW,2001-01-28 11:56,-87.7524,41.7860,M,M,M,210.00,6.00,M,M,M,M,0.00,M,M,M,M,M,M,M,M,M,M
MDW,2001-01-28 12:15,-87.7524,41.7860,M,M,M,210.00,7.00,M,M,M,M,0.00,M,M,M,M,M,M,M,M,M,M
MDW,2001-01-28 12:53,-87.7524,41.7860,27.00,25.00,92.05,210.00,5.00,M,29.58,M,M,0.00,M,M,M,M,M,M,M,M,M,M
MDW,2001-01-28 13:12,-87.7524,41.7860,M,M,M,200.00,5.00,M,M,M,M,0.00,M,M,M,M,M,M,M,M,M,M
MDW,2001-01-28 13:22,-87.7524,41.7860,M,M,M,210.00,5.00,M,M,M,M,0.00,M,M,M,M,M,M,M,M,M,M
MDW,2001-01-28 13:53,-87.7524,41.7860,28.00,25.00,88.33,190.00,5.00,M,29.56,M,M,0.00,M,M,M,M,M,M,M,M,M,M
MDW,2001-01-28 14:34,-87.7524,41.7860,M,M,M,170.00,5.00,M,M,M,M,0.00,M,M,M,M,M,M,M,M,M,M
MDW,2001-01-28 14:53,-87.7524,41.7860,28.00,26.00,92.08,170.00,4.00,M,29.54,M,M,0.00,M,M,M,M,M,M,M,M,M,M
MDW,2001-01-28 15:11,-87.7524,41.7860,M,M,M,190.00,4.00,M,M,M,M,0.00,M,M,M,M,M,M,M,M,M,M
MDW,2001-01-28 15:53,-87.7524,41.7860,29.00,27.00,92.12,0.00,3.00,M,29.53,M,M,0.00,M,M,M,M,M,M,M,M,M,M
MDW,2001-01-28 16:53,-87.7524,41.7860,30.00,28.00,92.15,130.00,5.00,M,29.52,M,M,0.00,M,M,M,M,M,M,M,M,M,M
MDW,2001-01-28 17:53,-87.7524,41.7860,30.00,28.00,92.15,110.00,5.00,M,29.51,M,M,0.00,M,M,M,M,M,M,M,M,M,M
MDW,2001-01-28 17:55,-87.7524,41.7860,M,M,M,110.00,5.00,M,M,M,M,0.00,M,M,M,M,M,M,M,M,M,M
MDW,2001-01-28 18:53,-87.7524,41.7860,31.00,30.00,96.02,100.00,5.00,M,29.50,M,M,0.00,M,M,M,M,M,M,M,M,M,M
MDW,2001-01-28 19:21,-87.7524,41.7860,M,M,M,110.00,6.00,M,M,M,M,0.00,M,M,M,M,M,M,M,M,M,M
MDW,2001-01-28 19:35,-87.7524,41.7860,M,M,M,100.00,8.00,M,M,M,M,0.00,M,M,M,M,M,M,M,M,M,M
MDW,2001-01-28 19:53,-87.7524,41.7860,31.00,30.00,96.02,100.00,7.00,M,29.47,M,M,0.00,M,M,M,M,M,M,M,M,M,M
MDW,2001-01-28 20:53,-87.7524,41.7860,31.00,30.00,96.02,120.00,8.00,M,29.45,M,M,0.00,M,M,M,M,M,M,M,M,M,M
MDW,2001-01-28 21:03,-87.7524,41.7860,M,M,M,120.00,6.00,M,M,M,M,0.00,M,M,M,M,M,M,M,M,M,M
MDW,2001-01-28 21:41,-87.7524,41.7860,M,M,M,110.00,5.00,M,M,M,M,0.00,M,M,M,M,M,M,M,M,M,M
MDW,2001-01-28 21:53,-87.7524,41.7860,31.00,30.00,96.02,110.00,5.00,M,29.43,M,M,0.00,M,M,M,M,M,M,M,M,M,M
MDW,2001-01-28 22:53,-87.7524,41.7860,32.00,31.00,96.04,120.00,5.00,M,29.39,M,M,0.00,M,M,M,M,M,M,M,M,M,M
MDW,2001-01-28 23:23,-87.7524,41.7860,M,M,M,130.00,9.00,M,M,M,M,0.00,M,M,M,M,M,M,M,M,M,M
MDW,2001-01-28 23:53,-87.7524,41.7860,33.00,30.00,88.58,130.00,10.00,M,29.34,M,M,0.00,M,M,M,M,M,M,M,M,M,M
MDW,2001-01-29 00:53,-87.7524,41.7860,34.00,30.00,85.11,80.00,7.00,0.03,29.31,M,M,0.00,M,M,M,M,M,M,M,M,M,M
MDW,2001-01-29 01:26,-87.7524,41.7860,M,M,M,90.00,10.00,M,M,M,M,0.00,M,M,M,M,M,M,M,M,M,M
MDW,2001-01-29 01:53,-87.7524,41.7860,33.00,31.00,92.25,100.00,7.00,M,29.31,M,M,0.00,M,M,M,M,M,M,M,M,M,M
MDW,2001-01-29 02:02,-87.7524,41.7860,M,M,M,110.00,9.00,M,M,M,M,0.00,M,M,M,M,M,M,M,M,M,M
MDW,2001-01-29 02:53,-87.7524,41.7860,34.00,31.00,88.63,90.00,9.00,0.02,29.30,M,M,0.00,M,M,M,M,M,M,M,M,M,M
MDW,2001-01-29 03:53,-87.7524,41.7860,34.00,31.00,88.63,90.00,9.00,0.04,29.26,M,M,0.00,M,M,M,M,M,M,M,M,M,M
MDW,2001-01-29 04:53,-87.7524,41.7860,35.00,31.00,85.17,100.00,12.00,M,29.22,M,M,0.00,M,M,M,M,M,M,M,M,M,M
MDW,2001-01-29 05:42,-87.7524,41.7860,M,M,M,100.00,12.00,M,M,M,M,0.00,M,M,M,M,M,M,M,M,M,M
MDW,2001-01-29 05:53,-87.7524,41.7860,36.00,32.00,85.23,100.00,10.00,0.03,29.16,M,M,0.00,M,M,M,M,M,M,M,M,M,M
MDW,2001-01-29 06:21,-87.7524,41.7860,M,M,M,100.00,10.00,M,M,M,M,0.00,M,M,M,M,M,M,M,M,M,M
MDW,2001-01-29 06:53,-87.7524,41.7860,36.00,32.00,85.23,90.00,11.00,M,29.08,M,M,0.00,M,M,M,M,M,M,M,M,M,M
MDW,2001-01-29 06:54,-87.7524,41.7860,M,M,M,90.00,12.00,M,M,M,M,0.00,M,M,M,M,M,M,M,M,M,M
MDW,2001-01-29 07:53,-87.7524,41.7860,36.00,34.00,92.35,100.00,7.00,0.01,29.06,M,M,0.00,M,M,M,M,M,M,M,M,M,M
MDW,2001-01-29 08:53,-87.7524,41.7860,37.00,34.00,88.78,90.00,8.00,0.04,29.00,M,M,0.00,M,M,M,M,M,M,M,M,M,M
MDW,2001-01-29 09:11,-87.7524,41.7860,M,M,M,90.00,8.00,M,M,M,M,0.00,M,M,M,M,M,M,M,M,M,M
MDW,2001-01-29 09:53,-87.7524,41.7860,38.00,35.00,88.83,110.00,6.00,0.07,28.98,M,M,0.00,M,M,M,M,M,M,M,M,M,M
MDW,2001-01-29 10:23,-87.7524,41.7860,M,M,M,110.00,8.00,M,M,M,M,0.00,M,M,M,M,M,M,M,M,M,M
MDW,2001-01-29 10:36,-87.7524,41.7860,M,M,M,110.00,9.00,M,M,M,M,0.00,M,M,M,M,M,M,M,M,M,M
MDW,2001-01-29 10:53,-87.7524,41.7860,39.00,37.00,92.45,120.00,10.00,0.07,28.95,M,M,0.00,M,M,M,M,M,M,M,M,M,M
MDW,2001-01-29 11:18,-87.7524,41.7860,M,M,M,120.00,12.00,M,M,M,M,0.00,M,M,M,M,M,M,M,M,M,M
MDW,2001-01-29 11:53,-87.7524,41.7860,40.00,37.00,88.92,120.00,11.00,0.05,28.92,M,M,0.00,M,M,M,M,M,M,M,M,M,M
MDW,2001-01-29 12:53,-87.7524,41.7860,41.00,39.00,92.52,120.00,15.00,0.02,28.82,M,M,23.00,M,M,M,M,M,M,M,M,M,M
MDW,2001-01-29 13:53,-87.7524,41.7860,41.00,39.00,92.52,130.00,20.00,0.06,28.79,M,M,25.00,M,M,M,M,M,M,M,M,M,M
MDW,2001-01-29 14:14,-87.7524,41.7860,M,M,M,140.00,15.00,M,M,M,M,0.00,M,M,M,M,M,M,M,M,M,M
MDW,2001-01-29 14:23,-87.7524,41.7860,M,M,M,140.00,14.00,M,M,M,M,0.00,M,M,M,M,M,M,M,M,M,M
MDW,2001-01-29 14:53,-87.7524,41.7860,42.00,40.00,92.55,150.00,17.00,0.11,28.76,M,M,22.00,M,M,M,M,M,M,M,M,M,M
MDW,2001-01-29 15:53,-87.7524,41.7860,43.00,41.00,92.58,200.00,18.00,0.07,28.77,M,M,27.00,M,M,M,M,M,M,M,M,M,M
MDW,2001-01-29 16:31,-87.7524,41.7860,M,M,M,180.00,12.00,M,M,M,M,0.00,M,M,M,M,M,M,M,M,M,M
MDW,2001-01-29 16:53,-87.7524,41.7860,41.00,39.00,92.52,190.00,10.00,M,28.76,M,M,0.00,M,M,M,M,M,M,M,M,M,M
MDW,2001-01-29 17:53,-87.7524,41.7860,40.00,38.00,92.49,200.00,11.00,M,28.78,M,M,0.00,M,M,M,M,M,M,M,M,M,M
MDW,2001-01-29 18:15,-87.7524,41.7860,M,M,M,220.00,12.00,M,M,M,M,16.00,M,M,M,M,M,M,M,M,M,M
MDW,2001-01-29 18:53,-87.7524,41.7860,40.00,37.00,88.92,210.00,10.00,M,28.80,M,M,0.00,M,M,M,M,M,M,M,M,M,M
MDW,2001-01-29 19:10,-87.7524,41.7860,M,M,M,220.00,8.00,M,M,M,M,0.00,M,M,M,M,M,M,M,M,M,M
MDW,2001-01-29 19:53,-87.7524,41.7860,38.00,36.00,92.42,230.00,4.00,M,28.79,M,M,0.00,M,M,M,M,M,M,M,M,M,M
MDW,2001-01-29 20:03,-87.7524,41.7860,M,M,M,230.00,5.00,M,M,M,M,0.00,M,M,M,M,M,M,M,M,M,M
MDW,2001-01-29 20:53,-87.7524,41.7860,37.00,35.00,92.39,200.00,5.00,M,28.75,M,M,0.00,M,M,M,M,M,M,M,M,M,M
MDW,2001-01-29 21:53,-87.7524,41.7860,35.00,33.00,92.32,150.00,4.00,M,28.73,M,M,0.00,M,M,M,M,M,M,M,M,M,M
MDW,2001-01-29 22:53,-87.7524,41.7860,35.00,31.00,85.17,150.00,6.00,M,28.73,M,M,0.00,M,M,M,M,M,M,M,M,M,M
MDW,2001-01-29 23:53,-87.7524,41.7860,34.00,32.00,92.29,120.00,6.00,M,28.71,M,M,0.00,M,M,M,M,M,M,M,M,M,M
MDW,2001-01-30 00:53,-87.7524,41.7860,36.00,32.00,85.23,130.00,9.00,M,28.70,M,M,0.00,M,M,M,M,M,M,M,M,M,M
MDW,2001-01-30 01:18,-87.7524,41.7860,M,M,M,180.00,5.00,M,M,M,M,0.00,M,M,M,M,M,M,M,M,M,M
MDW,2001-01-30 01:34,-87.7524,41.7860,M,M,M,0.00,0.00,M,M,M,M,0.00,M,M,M,M,M,M,M,M,M,M
MDW,2001-01-30 01:53,-87.7524,41.7860,37.00,34.00,88.78,80.00,6.00,0.06,28.69,M,M,0.00,M,M,M,M,M,M,M,M,M,M
MDW,2001-01-30 02:12,-87.7524,41.7860,M,M,M,130.00,4.00,M,M,M,M,0.00,M,M,M,M,M,M,M,M,M,M
MDW,2001-01-30 02:17,-87.7524,41.7860,M,M,M,110.00,4.00,M,M,M,M,0.00,M,M,M,M,M,M,M,M,M,M
MDW,2001-01-30 02:53,-87.7524,41.7860,37.00,35.00,92.39,130.00,6.00,0.03,28.68,M,M,0.00,M,M,M,M,M,M,M,M,M,M
MDW,2001-01-30 03:25,-87.7524,41.7860,M,M,M,130.00,5.00,M,M,M,M,0.00,M,M,M,M,M,M,M,M,M,M
MDW,2001-01-30 03:27,-87.7524,41.7860,M,M,M,130.00,6.00,M,M,M,M,0.00,M,M,M,M,M,M,M,M,M,M
MDW,2001-01-30 03:30,-87.7524,41.7860,M,M,M,130.00,6.00,M,M,M,M,0.00,M,M,M,M,M,M,M,M,M,M
MDW,2001-01-30 03:53,-87.7524,41.7860,38.00,37.00,96.14,140.00,7.00,0.01,28.67,M,M,0.00,M,M,M,M,M,M,M,M,M,M
MDW,2001-01-30 04:16,-87.7524,41.7860,M,M,M,140.00,5.00,M,M,M,M,0.00,M,M,M,M,M,M,M,M,M,M
MDW,2001-01-30 04:53,-87.7524,41.7860,39.00,37.00,92.45,180.00,5.00,M,28.66,M,M,0.00,M,M,M,M,M,M,M,M,M,M
MDW,2001-01-30 05:53,-87.7524,41.7860,38.00,36.00,92.42,180.00,9.00,0.01,28.64,M,M,0.00,M,M,M,M,M,M,M,M,M,M
MDW,2001-01-30 06:53,-87.7524,41.7860,37.00,35.00,92.39,220.00,8.00,M,28.64,M,M,0.00,M,M,M,M,M,M,M,M,M,M
MDW,2001-01-30 07:53,-87.7524,41.7860,36.00,33.00,88.73,220.00,9.00,0.01,28.65,M,M,15.00,M,M,M,M,M,M,M,M,M,M
MDW,2001-01-30 08:04,-87.7524,41.7860,M,M,M,220.00,9.00,M,M,M,M,0.00,M,M,M,M,M,M,M,M,M,M
MDW,2001-01-30 08:21,-87.7524,41.7860,M,M,M,220.00,7.00,M,M,M,M,0.00,M,M,M,M,M,M,M,M,M,M
MDW,2001-01-30 08:53,-87.7524,41.7860,35.00,33.00,92.32,220.00,8.00,0.02,28.68,M,M,0.00,M,M,M,M,M,M,M,M,M,M
MDW,2001-01-30 09:53,-87.7524,41.7860,36.00,33.00,88.73,240.00,10.00,0.01,28.70,M,M,0.00,M,M,M,M,M,M,M,M,M,M
MDW,2001-01-30 09:56,-87.7524,41.7860,M,M,M,240.00,8.00,M,M,M,M,0.00,M,M,M,M,M,M,M,M,M,M
MDW,2001-01-30 10:53,-87.7524,41.7860,35.00,32.00,88.68,260.00,11.00,M,28.73,M,M,0.00,M,M,M,M,M,M,M,M,M,M
MDW,2001-01-30 11:53,-87.7524,41.7860,34.00,31.00,88.63,240.00,13.00,M,28.76,M,M,0.00,M,M,M,M,M,M,M,M,M,M
MDW,2001-01-30 12:53,-87.7524,41.7860,35.00,31.00,85.17,230.00,8.00,M,28.78,M,M,0.00,M,M,M,M,M,M,M,M,M,M
MDW,2001-01-30 13:53,-87.7524,41.7860,34.00,31.00,88.63,250.00,13.00,M,28.78,M,M,0.00,M,M,M,M,M,M,M,M,M,M
MDW,2001-01-30 14:16,-87.7524,41.7860,M,M,M,250.00,12.00,M,M,M,M,0.00,M,M,M,M,M,M,M,M,M,M
MDW,2001-01-30 14:53,-87.7524,41.7860,34.00,32.00,92.29,260.00,10.00,M,28.79,M,M,0.00,M,M,M,M,M,M,M,M,M,M
MDW,2001-01-30 15:43,-87.7524,41.7860,M,M,M,290.00,9.00,M,M,M,M,0.00,M,M,M,M,M,M,M,M,M,M
MDW,2001-01-30 15:53,-87.7524,41.7860,34.00,32.00,92.29,280.00,10.00,M,28.82,M,M,0.00,M,M,M,M,M,M,M,M,M,M
MDW,2001-01-30 16:53,-87.7524,41.7860,34.00,32.00,92.29,300.00,8.00,0.01,28.85,M,M,0.00,M,M,M,M,M,M,M,M,M,M
MDW,2001-01-30 17:53,-87.7524,41.7860,34.00,32.00,92.29,270.00,7.00,M,28.87,M,M,0.00,M,M,M,M,M,M,M,M,M,M
MDW,2001-01-30 18:53,-87.7524,41.7860,34.00,32.00,92.29,270.00,9.00,M,28.88,M,M,0.00,M,M,M,M,M,M,M,M,M,M
MDW,2001-01-30 19:53,-87.7524,41.7860,34.00,32.00,92.29,270.00,8.00,M,28.92,M,M,0.00,M,M,M,M,M,M,M,M,M,M
MDW,2001-01-30 20:23,-87.7524,41.7860,M,M,M,270.00,10.00,M,M,M,M,0.00,M,M,M,M,M,M,M,M,M,M
MDW,2001-01-30 20:34,-87.7524,41.7860,M,M,M,290.00,8.00,M,M,M,M,0.00,M,M,M,M,M,M,M,M,M,M
MDW,2001-01-30 20:53,-87.7524,41.7860,34.00,31.00,88.63,290.00,8.00,M,28.94,M,M,0.00,M,M,M,M,M,M,M,M,M,M
MDW,2001-01-30 21:53,-87.7524,41.7860,34.00,31.00,88.63,260.00,6.00,M,28.96,M,M,0.00,M,M,M,M,M,M,M,M,M,M
MDW,2001-01-30 22:53,-87.7524,41.7860,34.00,32.00,92.29,250.00,8.00,M,28.98,M,M,0.00,M,M,M,M,M,M,M,M,M,M
MDW,2001-01-30 23:53,-87.7524,41.7860,34.00,32.00,92.29,250.00,8.00,M,29.01,M,M,0.00,M,M,M,M,M,M,M,M,M,M
MDW,2001-01-31 00:53,-87.7524,41.7860,34.00,32.00,92.29,250.00,11.00,M,29.04,M,M,0.00,M,M,M,M,M,M,M,M,M,M
MDW,2001-01-31 01:37,-87.7524,41.7860,M,M,M,250.00,9.00,M,M,M,M,0.00,M,M,M,M,M,M,M,M,M,M
MDW,2001-01-31 01:40,-87.7524,41.7860,M,M,M,250.00,10.00,M,M,M,M,0.00,M,M,M,M,M,M,M,M,M,M
MDW,2001-01-31 01:53,-87.7524,41.7860,35.00,33.00,92.32,250.00,9.00,M,29.06,M,M,0.00,M,M,M,M,M,M,M,M,M,M
MDW,2001-01-31 02:53,-87.7524,41.7860,35.00,33.00,92.32,260.00,9.00,M,29.08,M,M,0.00,M,M,M,M,M,M,M,M,M,M
MDW,2001-01-31 03:04,-87.7524,41.7860,M,M,M,270.00,11.00,M,M,M,M,0.00,M,M,M,M,M,M,M,M,M,M
MDW,2001-01-31 03:27,-87.7524,41.7860,M,M,M,250.00,7.00,M,M,M,M,0.00,M,M,M,M,M,M,M,M,M,M
MDW,2001-01-31 03:53,-87.7524,41.7860,35.00,31.00,85.17,250.00,11.00,M,29.09,M,M,0.00,M,M,M,M,M,M,M,M,M,M
MDW,2001-01-31 04:53,-87.7524,41.7860,36.00,28.00,72.43,260.00,11.00,M,29.11,M,M,0.00,M,M,M,M,M,M,M,M,M,M
MDW,2001-01-31 05:53,-87.7524,41.7860,36.00,29.00,75.46,250.00,12.00,M,29.10,M,M,0.00,M,M,M,M,M,M,M,M,M,M
MDW,2001-01-31 06:16,-87.7524,41.7860,M,M,M,270.00,11.00,M,M,M,M,0.00,M,M,M,M,M,M,M,M,M,M
MDW,2001-01-31 06:53,-87.7524,41.7860,35.00,29.00,78.51,280.00,14.00,M,29.09,M,M,0.00,M,M,M,M,M,M,M,M,M,M
MDW,2001-01-31 07:53,-87.7524,41.7860,35.00,30.00,81.78,250.00,13.00,M,29.10,M,M,0.00,M,M,M,M,M,M,M,M,M,M
MDW,2001-01-31 08:43,-87.7524,41.7860,M,M,M,270.00,9.00,M,M,M,M,0.00,M,M,M,M,M,M,M,M,M,M
MDW,2001-01-31 08:53,-87.7524,41.7860,35.00,30.00,81.78,270.00,12.00,M,29.11,M,M,0.00,M,M,M,M,M,M,M,M,M,M
MDW,2001-01-31 09:53,-87.7524,41.7860,33.00,29.00,85.04,260.00,12.00,M,29.15,M,M,0.00,M,M,M,M,M,M,M,M,M,M
MDW,2001-01-31 10:53,-87.7524,41.7860,33.00,31.00,92.25,260.00,9.00,M,29.17,M,M,0.00,M,M,M,M,M,M,M,M,M,M
MDW,2001-01-31 11:53,-87.7524,41.7860,33.00,29.00,85.04,270.00,12.00,M,29.21,M,M,0.00,M,M,M,M,M,M,M,M,M,M
MDW,2001-01-31 12:53,-87.7524,41.7860,33.00,28.00,81.63,270.00,11.00,M,29.23,M,M,0.00,M,M,M,M,M,M,M,M,M,M
MDW,2001-01-31 13:53,-87.7524,41.7860,32.00,28.00,84.98,270.00,12.00,M,29.25,M,M,0.00,M,M,M,M,M,M,M,M,M,M
MDW,2001-01-31 14:53,-87.7524,41.7860,32.00,27.00,81.55,270.00,11.00,M,29.27,M,M,0.00,M,M,M,M,M,M,M,M,M,M
MDW,2001-01-31 15:24,-87.7524,41.7860,M,M,M,270.00,11.00,M,M,M,M,0.00,M,M,M,M,M,M,M,M,M,M
MDW,2001-01-31 15:53,-87.7524,41.7860,32.00,28.00,84.98,270.00,11.00,M,29.29,M,M,0.00,M,M,M,M,M,M,M,M,M,M
MDW,2001-01-31 16:53,-87.7524,41.7860,30.00,24.00,78.07,260.00,11.00,M,29.30,M,M,0.00,M,M,M,M,M,M,M,M,M,M
MDW,2001-01-31 17:12,-87.7524,41.7860,M,M,M,260.00,7.00,M,M,M,M,0.00,M,M,M,M,M,M,M,M,M,M
MDW,2001-01-31 17:53,-87.7524,41.7860,29.00,23.00,77.98,270.00,9.00,M,29.32,M,M,0.00,M,M,M,M,M,M,M,M,M,M
MDW,2001-01-31 18:53,-87.7524,41.7860,28.00,23.00,81.25,270.00,9.00,M,29.33,M,M,0.00,M,M,M,M,M,M,M,M,M,M
MDW,2001-01-31 19:53,-87.7524,41.7860,28.00,22.00,77.89,270.00,8.00,M,29.36,M,M,0.00,M,M,M,M,M,M,M,M,M,M
MDW,2001-01-31 20:53,-87.7524,41.7860,26.00,22.00,84.59,260.00,8.00,M,29.36,M,M,0.00,M,M,M,M,M,M,M,M,M,M
MDW,2001-01-31 21:53,-87.7524,41.7860,25.00,21.00,84.53,240.00,6.00,M,29.36,M,M,0.00,M,M,M,M,M,M,M,M,M,M
MDW,2001-01-31 22:53,-87.7524,41.7860,25.00,21.00,84.53,260.00,9.00,M,29.39,M,M,0.00,M,M,M,M,M,M,M,M,M,M
MDW,2001-01-31 23:53,-87.7524,41.7860,24.00,20.00,84.46,250.00,7.00,M,29.40,M,M,0.00,M,M,M,M,M,M,M,M,M,M
MDW,2001-02-01 00:53,-87.7524,41.7860,23.00,20.00,88.08,230.00,7.00,M,29.42,M,M,0.00,M,M,M,M,M,M,M,M,M,M
MDW,2001-02-01 01:53,-87.7524,41.7860,23.00,20.00,88.08,250.00,7.00,M,29.44,M,M,0.00,M,M,M,M,M,M,M,M,M,M
MDW,2001-02-01 02:53,-87.7524,41.7860,24.00,20.00,84.46,220.00,4.00,M,29.45,M,M,0.00,M,M,M,M,M,M,M,M,M,M
MDW,2001-02-01 03:53,-87.7524,41.7860,27.00,20.00,74.57,220.00,6.00,M,29.46,M,M,0.00,M,M,M,M,M,M,M,M,M,M
MDW,2001-02-01 04:53,-87.7524,41.7860,30.00,21.00,68.81,220.00,7.00,M,29.45,M,M,0.00,M,M,M,M,M,M,M,M,M,M
MDW,2001-02-01 05:53,-87.7524,41.7860,32.00,21.00,63.45,250.00,10.00,M,29.44,M,M,0.00,M,M,M,M,M,M,M,M,M,M
MDW,2001-02-01 06:53,-87.7524,41.7860,33.00,21.00,60.95,240.00,10.00,M,29.40,M,M,0.00,M,M,M,M,M,M,M,M,M,M
MDW,2001-02-01 07:53,-87.7524,41.7860,33.00,20.00,58.41,270.00,12.00,M,29.39,M,M,0.00,M,M,M,M,M,M,M,M,M,M
MDW,2001-02-01 08:53,-87.7524,41.7860,32.00,20.00,60.81,260.00,14.00,M,29.41,M,M,0.00,M,M,M,M,M,M,M,M,M,M
MDW,2001-02-01 09:53,-87.7524,41.7860,31.00,19.00,60.67,250.00,11.00,M,29.41,M,M,0.00,M,M,M,M,M,M,M,M,M,M
MDW,2001-02-01 10:53,-87.7524,41.7860,29.00,20.00,68.69,280.00,10.00,M,29.42,M,M,0.00,M,M,M,M,M,M,M,M,M,M
MDW,2001-02-01 11:53,-87.7524,41.7860,27.00,22.00,81.17,270.00,10.00,M,29.44,M,M,0.00,M,M,M,M,M,M,M,M,M,M
MDW,2001-02-01 12:01,-87.7524,41.7860,M,M,M,270.00,11.00,M,M,M,M,0.00,M,M,M,M,M,M,M,M,M,M
MDW,2001-02-01 12:10,-87.7524,41.7860,M,M,M,290.00,14.00,M,M,M,M,0.00,M,M,M,M,M,M,M,M,M,M
MDW,2001-02-01 12:53,-87.7524,41.7860,23.00,19.00,84.39,280.00,13.00,M,29.45,M,M,0.00,M,M,M,M,M,M,M,M,M,M
MDW,2001-02-01 13:18,-87.7524,41.7860,M,M,M,270.00,14.00,M,M,M,M,0.00,M,M,M,M,M,M,M,M,M,M
MDW,2001-02-01 13:33,-87.7524,41.7860,M,M,M,260.00,14.00,M,M,M,M,19.00,M,M,M,M,M,M,M,M,M,M
MDW,2001-02-01 13:53,-87.7524,41.7860,20.00,15.00,80.60,290.00,12.00,M,29.47,M,M,0.00,M,M,M,M,M,M,M,M,M,M
MDW,2001-02-01 14:53,-87.7524,41.7860,16.00,0.00,48.57,280.00,11.00,M,29.49,M,M,0.00,M,M,M,M,M,M,M,M,M,M
MDW,2001-02-01 15:53,-87.7524,41.7860,11.00,0.00,60.50,300.00,17.00,M,29.51,M,M,20.00,M,M,M,M,M,M,M,M,M,M
MDW,2001-02-01 16:53,-87.7524,41.7860,9.00,-2.00,60.21,300.00,13.00,M,29.51,M,M,0.00,M,M,M,M,M,M,M,M,M,M
MDW,2001-02-01 17:53,-87.7524,41.7860,6.00,-3.00,65.76,300.00,15.00,M,29.51,M,M,0.00,M,M,M,M,M,M,M,M,M,M
MDW,2001-02-01 18:53,-87.7524,41.7860,5.00,-3.00,68.83,300.00,12.00,M,29.52,M,M,18.00,M,M,M,M,M,M,M,M,M,M
MDW,2001-02-01 19:53,-87.7524,41.7860,4.00,-6.00,62.40,290.00,11.00,M,29.53,M,M,0.00,M,M,M,M,M,M,M,M,M,M
MDW,2001-02-01 20:53,-87.7524,41.7860,3.00,-5.00,68.58,280.00,13.00,M,29.53,M,M,0.00,M,M,M,M,M,M,M,M,M,M
MDW,2001-02-01 21:53,-87.7524,41.7860,1.00,-7.00,68.32,290.00,11.00,M,29.54,M,M,0.00,M,M,M,M,M,M,M,M,M,M
MDW,2001-02-01 22:53,-87.7524,41.7860,1.00,-7.00,68.32,290.00,15.00,M,29.55,M,M,0.00,M,M,M,M,M,M,M,M,M,M
MDW,2001-02-01 23:53,-87.7524,41.7860,0.00,-8.00,68.19,280.00,14.00,M,29.58,M,M,20.00,M,M,M,M,M,M,M,M,M,M
MDW,2001-02-02 00:53,-87.7524,41.7860,0.00,-8.00,68.19,280.00,11.00,M,29.59,M,M,0.00,M,M,M,M,M,M,M,M,M,M
MDW,2001-02-02 01:53,-87.7524,41.7860,1.00,-7.00,68.32,270.00,11.00,M,29.61,M,M,0.00,M,M,M,M,M,M,M,M,M,M
MDW,2001-02-02 02:53,-87.7524,41.7860,2.00,-5.00,71.83,280.00,9.00,M,29.62,M,M,0.00,M,M,M,M,M,M,M,M,M,M
MDW,2001-02-02 03:53,-87.7524,41.7860,5.00,-4.00,65.62,270.00,10.00,M,29.64,M,M,0.00,M,M,M,M,M,M,M,M,M,M
MDW,2001-02-02 04:53,-87.7524,41.7860,7.00,-4.00,59.91,260.00,11.00,M,29.65,M,M,0.00,M,M,M,M,M,M,M,M,M,M
MDW,2001-02-02 05:53,-87.7524,41.7860,9.00,-1.00,63.12,270.00,10.00,M,29.64,M,M,0.00,M,M,M,M,M,M,M,M,M,M
MDW,2001-02-02 06:53,-87.7524,41.7860,11.00,1.00,63.40,260.00,8.00,M,29.61,M,M,0.00,M,M,M,M,M,M,M,M,M,M
MDW,2001-02-02 07:53,-87.7524,41.7860,13.00,2.00,60.80,270.00,13.00,M,29.61,M,M,0.00,M,M,M,M,M,M,M,M,M,M
MDW,2001-02-02 08:53,-87.7524,41.7860,14.00,3.00,60.94,240.00,8.00,M,29.61,M,M,0.00,M,M,M,M,M,M,M,M,M,M
MDW,2001-02-02 09:53,-87.7524,41.7860,13.00,1.00,58.03,260.00,10.00,M,29.62,M,M,0.00,M,M,M,M,M,M,M,M,M,M
MDW,2001-02-02 10:53,-87.7524,41.7860,11.00,1.00,63.40,240.00,12.00,M,29.62,M,M,0.00,M,M,M,M,M,M,M,M,M,M
MDW,2001-02-02 11:53,-87.7524,41.7860,11.00,1.00,63.40,240.00,11.00,M,29.62,M,M,0.00,M,M,M,M,M,M,M,M,M,M
MDW,2001-02-02 12:53,-87.7524,41.7860,10.00,2.00,69.45,240.00,11.00,M,29.63,M,M,0.00,M,M,M,M,M,M,M,M,M,M
MDW,2001-02-02 13:53,-87.7524,41.7860,10.00,2.00,69.45,240.00,8.00,M,29.62,M,M,0.00,M,M,M,M,M,M,M,M,M,M
MDW,2001-02-02 14:53,-87.7524,41.7860,11.00,3.00,69.58,220.00,6.00,M,29.62,M,M,0.00,M,M,M,M,M,M,M,M,M,M
MDW,2001-02-02 15:53,-87.7524,41.7860,11.00,4.00,72.86,220.00,8.00,M,29.61,M,M,0.00,M,M,M,M,M,M,M,M,M,M
MDW,2001-02-02 16:53,-87.7524,41.7860,11.00,4.00,72.86,230.00,10.00,M,29.61,M,M,0.00,M,M,M,M,M,M,M,M,M,M
MDW,2001-02-02 17:53,-87.7524,41.7860,11.00,3.00,69.58,220.00,7.00,M,29.61,M,M,0.00,M,M,M,M,M,M,M,M,M,M
MDW,2001-02-02 18:53,-87.7524,41.7860,12.00,7.00,79.93,220.00,7.00,M,29.58,M,M,0.00,M,M,M,M,M,M,M,M,M,M
MDW,2001-02-02 19:53,-87.7524,41.7860,13.00,8.00,80.02,180.00,8.00,M,29.56,M,M,0.00,M,M,M,M,M,M,M,M,M,M
MDW,2001-02-02 20:00,-87.7524,41.7860,M,M,M,190.00,7.00,M,M,M,M,0.00,M,M,M,M,M,M,M,M,M,M
MDW,2001-02-02 20:20,-87.7524,41.7860,M,M,M,190.00,7.00,M,M,M,M,0.00,M,M,M,M,M,M,M,M,M,M
MDW,2001-02-02 20:53,-87.7524,41.7860,13.00,8.00,80.02,180.00,5.00,M,29.54,M,M,0.00,M,M,M,M,M,M,M,M,M,M
MDW,2001-02-02 21:53,-87.7524,41.7860,14.00,9.00,80.10,180.00,7.00,M,29.51,M,M,0.00,M,M,M,M,M,M,M,M,M,M
MDW,2001-02-02 22:53,-87.7524,41.7860,16.00,11.00,80.27,170.00,8.00,M,29.51,M,M,0.00,M,M,M,M,M,M,M,M,M,M
MDW,2001-02-02 23:53,-87.7524,41.7860,17.00,11.00,76.87,190.00,11.00,M,29.51,M,M,0.00,M,M,M,M,M,M,M,M,M,M
MDW,2001-02-03 00:20,-87.7524,41.7860,M,M,M,190.00,10.00,M,M,M,M,0.00,M,M,M,M,M,M,M,M,M,M
MDW,2001-02-03 00:53,-87.7524,41.7860,17.00,12.00,80.36,190.00,9.00,M,29.51,M,M,0.00,M,M,M,M,M,M,M,M,M,M
MDW,2001-02-03 01:53,-87.7524,41.7860,18.00,12.00,76.97,190.00,9.00,M,29.51,M,M,0.00,M,M,M,M,M,M,M,M,M,M
MDW,2001-02-03 02:53,-87.7524,41.7860,19.00,12.00,73.73,170.00,11.00,M,29.50,M,M,19.00,M,M,M,M,M,M,M,M,M,M
MDW,2001-02-03 03:53,-87.7524,41.7860,20.00,12.00,70.65,180.00,13.00,M,29.49,M,M,0.00,M,M,M,M,M,M,M,M,M,M
MDW,2001-02-03 04:53,-87.7524,41.7860,22.00,15.00,74.05,200.00,12.00,M,29.50,M,M,0.00,M,M,M,M,M,M,M,M,M,M
MDW,2001-02-03 05:53,-87.7524,41.7860,23.00,15.00,70.99,190.00,13.00,M,29.46,M,M,0.00,M,M,M,M,M,M,M,M,M,M
MDW,2001-02-03 06:53,-87.7524,41.7860,25.00,16.00,68.20,200.00,11.00,M,29.43,M,M,0.00,M,M,M,M,M,M,M,M,M,M
MDW,2001-02-03 07:53,-87.7524,41.7860,27.00,17.00,65.56,180.00,11.00,M,29.39,M,M,17.00,M,M,M,M,M,M,M,M,M,M
MDW,2001-02-03 08:53,-87.7524,41.7860,28.00,18.00,65.69,190.00,11.00,M,29.40,M,M,23.00,M,M,M,M,M,M,M,M,M,M
MDW,2001-02-03 09:53,-87.7524,41.7860,29.00,21.00,71.67,190.00,13.00,M,29.38,M,M,0.00,M,M,M,M,M,M,M,M,M,M
MDW,2001-02-03 10:53,-87.7524,41.7860,29.00,22.00,74.77,180.00,13.00,M,29.39,M,M,0.00,M,M,M,M,M,M,M,M,M,M
MDW,2001-02-03 11:53,-87.7524,41.7860,30.00,21.00,68.81,200.00,11.00,M,29.39,M,M,0.00,M,M,M,M,M,M,M,M,M,M
MDW,2001-02-03 12:53,-87.7524,41.7860,30.00,23.00,74.87,190.00,12.00,M,29.38,M,M,0.00,M,M,M,M,M,M,M,M,M,M
MDW,2001-02-03 13:53,-87.7524,41.7860,30.00,23.00,74.87,190.00,10.00,M,29.36,M,M,0.00,M,M,M,M,M,M,M,M,M,M